{"type":"FeatureCollection","name":"Boston Marathon OSM relation 11680552, start-to-finish graph path","license":"ODbL-1.0","attribution":"(c) OpenStreetMap contributors","source":"https://www.openstreetmap.org/relation/11680552","retrieved":"2026-09-30","properties":{"route_name":"Boston Marathon","operator":"Boston Athletic Association","relation_distance_km":42.195,"start_node_id":7512978677,"finish_node_id":7644779165,"start":[-71.518205,42.2297774],"finish":[-71.0786162,42.3497514],"graph_path_length_m":42417.37550585372,"topology":"One connected simple path: all relation way geometries used once; no endpoint branches, alternate paths, duplicate exact segments, or invented connectors. Ordered/oriented by graph connectivity, not relation member order.","bounds":[-71.518205,42.2297774,-71.0786162,42.3497514],"east_west_span_km":36.19974917689835,"north_south_span_km":13.355505679999903},"features":[{"type":"Feature","properties":{"osm_way_id":852187435,"course_order":1},"geometry":{"type":"LineString","coordinates":[[-71.518205,42.2297774],[-71.5179444,42.2299813],[-71.5179132,42.2300083],[-71.5177607,42.2301639],[-71.5176293,42.2302953],[-71.5175056,42.2304263],[-71.5174058,42.2305403],[-71.5173121,42.2306544],[-71.517244,42.2307616],[-71.5171972,42.2308367],[-71.5171465,42.2309188],[-71.517015,42.231128],[-71.5168992,42.231291],[-71.5167692,42.231446],[-71.5166088,42.2316066],[-71.516502,42.2316935],[-71.5164111,42.2317621],[-71.5163115,42.2318238],[-71.5161518,42.231911],[-71.5160634,42.2319522],[-71.5158868,42.2320346],[-71.5158063,42.2320686],[-71.5157164,42.2321046],[-71.5154668,42.232208],[-71.5149937,42.2323928],[-71.5146074,42.2325412],[-71.5144414,42.2326049],[-71.5140903,42.2327431],[-71.513547,42.2329515],[-71.5132733,42.2330579],[-71.5130697,42.2331258],[-71.5129485,42.2331665],[-71.5128438,42.2331972],[-71.5122271,42.2333755],[-71.5120667,42.2334264],[-71.5118883,42.2334901],[-71.5116755,42.233578],[-71.5113628,42.2337139],[-71.5108372,42.2339493],[-71.5105527,42.2340753],[-71.5100925,42.2342814],[-71.5095412,42.2345232],[-71.5093175,42.2346272],[-71.5091242,42.2347243],[-71.5089297,42.2348274],[-71.5086517,42.234994],[-71.5084031,42.2351514],[-71.508173,42.235302],[-71.507581,42.235675],[-71.5072853,42.2358563],[-71.5070883,42.2359684],[-71.5069249,42.236049],[-71.5067472,42.2361252],[-71.5065976,42.2361783],[-71.5064783,42.2362146],[-71.5063705,42.2362451],[-71.5061792,42.2362903],[-71.5059949,42.2363236],[-71.5058326,42.2363503],[-71.5056791,42.2363679],[-71.5051573,42.2364297],[-71.5048088,42.2364693],[-71.5041011,42.2365445],[-71.503658,42.2365807],[-71.503452,42.236588],[-71.5032651,42.2365939],[-71.5031516,42.2365946],[-71.5030091,42.2365903],[-71.5028988,42.236583],[-71.502801,42.236573],[-71.5024708,42.2365351],[-71.502033,42.2364871],[-71.5019057,42.2364735],[-71.5016871,42.2364477],[-71.5016507,42.2364434],[-71.501419,42.236416],[-71.501028,42.236378],[-71.500717,42.236356],[-71.5005757,42.2363521],[-71.5004114,42.2363527],[-71.5002688,42.2363542],[-71.5001868,42.2363579],[-71.5000619,42.236364],[-71.4999489,42.2363721],[-71.4997216,42.2363932],[-71.4995138,42.2364221],[-71.4989972,42.2365],[-71.4983977,42.2366025],[-71.4983138,42.2366177],[-71.4977177,42.2367325],[-71.4975107,42.2367779],[-71.497081,42.2368772],[-71.496319,42.2370566],[-71.4957749,42.2371836],[-71.4955747,42.237231],[-71.494966,42.237373],[-71.4944615,42.237493],[-71.4941064,42.2375774],[-71.4937491,42.2376696],[-71.4936692,42.2376957],[-71.4934598,42.2377679],[-71.4932431,42.2378484],[-71.4930326,42.2379313],[-71.4925747,42.2381281],[-71.4924141,42.2382075],[-71.4922535,42.2382892],[-71.4920543,42.2383986],[-71.4917976,42.2385412],[-71.4916419,42.2386268],[-71.4914094,42.2387561],[-71.4912294,42.2388558],[-71.4909115,42.239021],[-71.4906231,42.2391684],[-71.4899011,42.2395354],[-71.4896553,42.239659],[-71.4894209,42.2397755],[-71.4891685,42.239902],[-71.4888495,42.2400583],[-71.4885708,42.2401905],[-71.4881836,42.2403752],[-71.487539,42.2406717],[-71.4869622,42.240938],[-71.4865667,42.2411206],[-71.486107,42.241334]]}},{"type":"Feature","properties":{"osm_way_id":146315551,"course_order":2},"geometry":{"type":"LineString","coordinates":[[-71.486107,42.241334],[-71.4860485,42.2413609],[-71.4856638,42.2415353],[-71.4854614,42.2416251],[-71.4850814,42.2417984],[-71.4844339,42.2420959],[-71.4837976,42.2423911],[-71.4833998,42.2425767],[-71.4826796,42.2429078],[-71.4818529,42.2432932],[-71.4816205,42.2433985],[-71.4806837,42.2438358],[-71.4797689,42.2442593],[-71.4795636,42.2443551],[-71.4793636,42.2444441],[-71.4791138,42.2445502],[-71.4788026,42.2446669],[-71.478444,42.2447971],[-71.4780113,42.2449501],[-71.4779167,42.2449825],[-71.477539,42.2451187],[-71.477374,42.2451846],[-71.4771831,42.2452681],[-71.4770145,42.2453531],[-71.476855,42.2454409],[-71.4767222,42.2455251],[-71.4765733,42.2456313],[-71.4764365,42.2457302],[-71.4763153,42.2458271],[-71.47616,42.2459448],[-71.4755637,42.2464707],[-71.4752989,42.2467148],[-71.4751921,42.2468167],[-71.4751136,42.246905],[-71.4750463,42.246992],[-71.4749863,42.24709],[-71.4749276,42.2472009],[-71.4748745,42.2473128],[-71.4747269,42.2476183],[-71.4746431,42.2477925],[-71.4745693,42.2479259],[-71.4744937,42.2480479],[-71.4744336,42.2481324],[-71.4743694,42.248207],[-71.4742668,42.2483135],[-71.4741453,42.2484315],[-71.473988,42.248586],[-71.4738898,42.2486825],[-71.4738036,42.2487702],[-71.4737265,42.2488537],[-71.4736112,42.2489867],[-71.4734419,42.2492113],[-71.4733388,42.2493535],[-71.4732345,42.2494973],[-71.4730693,42.2497229],[-71.4729281,42.2499125],[-71.472825,42.250051],[-71.4726636,42.2502705],[-71.4725949,42.2503639],[-71.4723802,42.2506625],[-71.4722833,42.250795],[-71.4721979,42.250913],[-71.472088,42.251063],[-71.4720151,42.2511595],[-71.4719496,42.251243],[-71.4718868,42.2513165],[-71.4718213,42.2513849],[-71.4717478,42.2514544],[-71.4716669,42.2515219],[-71.4715529,42.2516141],[-71.4711885,42.2518839],[-71.470557,42.252364],[-71.4700978,42.2527213],[-71.4699065,42.2528837],[-71.4697236,42.253052],[-71.4696547,42.2531154],[-71.4695814,42.253184],[-71.4695288,42.2532333],[-71.469492,42.2532702],[-71.4686178,42.2541458],[-71.4685316,42.2542321],[-71.4684542,42.2543217],[-71.4683887,42.254388],[-71.4682595,42.254515],[-71.4681663,42.2546091],[-71.46813,42.2546472]]}},{"type":"Feature","properties":{"osm_way_id":146319891,"course_order":3},"geometry":{"type":"LineString","coordinates":[[-71.46813,42.2546472],[-71.4680668,42.2546847],[-71.4679887,42.254749],[-71.4677702,42.2549289],[-71.467673,42.2550004],[-71.4675654,42.2550719],[-71.4675208,42.2551016],[-71.4673715,42.2551966],[-71.4673063,42.2552327],[-71.4671989,42.2552922],[-71.4671045,42.2553417],[-71.4669877,42.2553909]]}},{"type":"Feature","properties":{"osm_way_id":8856725,"course_order":4},"geometry":{"type":"LineString","coordinates":[[-71.4669877,42.2553909],[-71.4669097,42.2554227],[-71.4668211,42.2554501],[-71.4667191,42.2554767],[-71.4665878,42.2555042],[-71.4664709,42.2555222],[-71.4663896,42.2555352],[-71.4663116,42.2555511],[-71.4662356,42.2555695],[-71.4661613,42.2555903]]}},{"type":"Feature","properties":{"osm_way_id":1523992040,"course_order":5},"geometry":{"type":"LineString","coordinates":[[-71.4661613,42.2555903],[-71.4658549,42.2556346]]}},{"type":"Feature","properties":{"osm_way_id":146319885,"course_order":6},"geometry":{"type":"LineString","coordinates":[[-71.4658549,42.2556346],[-71.4656938,42.2556588],[-71.4654571,42.255699],[-71.4652594,42.2557402],[-71.4650738,42.2557822],[-71.4645926,42.2558965],[-71.4643063,42.2559675],[-71.4641012,42.2560181],[-71.4638724,42.2560778],[-71.4636744,42.2561339],[-71.463202,42.2562775],[-71.4628474,42.2563878],[-71.4622414,42.2565707],[-71.461342,42.256854]]}},{"type":"Feature","properties":{"osm_way_id":1523987995,"course_order":7},"geometry":{"type":"LineString","coordinates":[[-71.461342,42.256854],[-71.4609099,42.2569861]]}},{"type":"Feature","properties":{"osm_way_id":1523987994,"course_order":8},"geometry":{"type":"LineString","coordinates":[[-71.4609099,42.2569861],[-71.460525,42.2571037],[-71.460152,42.2572179],[-71.4599362,42.257284],[-71.4597599,42.257338],[-71.4588936,42.2576026],[-71.4582584,42.2577939],[-71.4576887,42.257961],[-71.4575963,42.257987],[-71.4574392,42.2580322],[-71.45733,42.2580621],[-71.4572179,42.2580909],[-71.4570987,42.2581212],[-71.4568774,42.2581746],[-71.4565219,42.2582584]]}},{"type":"Feature","properties":{"osm_way_id":847199262,"course_order":9},"geometry":{"type":"LineString","coordinates":[[-71.4565219,42.2582584],[-71.4561318,42.2583381],[-71.4559329,42.2583778],[-71.4558299,42.2583986],[-71.4556836,42.2584255],[-71.4555973,42.2584417]]}},{"type":"Feature","properties":{"osm_way_id":145481003,"course_order":10},"geometry":{"type":"LineString","coordinates":[[-71.4555973,42.2584417],[-71.4552574,42.2585095]]}},{"type":"Feature","properties":{"osm_way_id":145481052,"course_order":11},"geometry":{"type":"LineString","coordinates":[[-71.4552574,42.2585095],[-71.4551505,42.2585304],[-71.4551019,42.2585389],[-71.4548972,42.2585744],[-71.4544271,42.2586662],[-71.454213,42.2587112],[-71.4540821,42.2587418],[-71.4539113,42.2587916],[-71.4537802,42.2588356],[-71.453665,42.2588796],[-71.453486,42.2589592],[-71.453283,42.259053],[-71.4527145,42.2593557],[-71.4525083,42.2594605],[-71.4521487,42.2596544]]}},{"type":"Feature","properties":{"osm_way_id":145371952,"course_order":12},"geometry":{"type":"LineString","coordinates":[[-71.4521487,42.2596544],[-71.4518337,42.2598352]]}},{"type":"Feature","properties":{"osm_way_id":145371953,"course_order":13},"geometry":{"type":"LineString","coordinates":[[-71.4518337,42.2598352],[-71.4515565,42.2600016],[-71.4511712,42.2602684],[-71.450911,42.260458],[-71.45051,42.260784],[-71.4503517,42.2609143],[-71.450229,42.2610264],[-71.4501671,42.2610829],[-71.4497774,42.2615664],[-71.4497584,42.2615899]]}},{"type":"Feature","properties":{"osm_way_id":8856151,"course_order":14},"geometry":{"type":"LineString","coordinates":[[-71.4497584,42.2615899],[-71.4497795,42.2616505],[-71.4497365,42.2617519],[-71.4496524,42.2619294],[-71.4495402,42.2621825],[-71.4494756,42.2623094],[-71.4494058,42.2624366],[-71.4493214,42.2625661],[-71.449237,42.2626745],[-71.4491356,42.262785],[-71.4490727,42.2628496],[-71.4490118,42.2629023],[-71.4489077,42.2629904],[-71.4487339,42.263128],[-71.4485307,42.2632896],[-71.448383,42.2634159],[-71.4482732,42.2635285],[-71.4481817,42.263638],[-71.4480923,42.2637503],[-71.4480049,42.2638798],[-71.447859,42.264092],[-71.4477773,42.2641965],[-71.4476957,42.2642935],[-71.4476109,42.2643867],[-71.447524,42.2644687],[-71.4473776,42.264603],[-71.4472485,42.2647093],[-71.4471285,42.264814],[-71.446949,42.2649817],[-71.4467849,42.2651707],[-71.4466589,42.2653569],[-71.4465621,42.2655256],[-71.446447,42.26575],[-71.4462166,42.2662096],[-71.4460759,42.2665058],[-71.4459164,42.2668172],[-71.4457877,42.2670815],[-71.4456665,42.2673266],[-71.445612,42.267439],[-71.4455008,42.2676663],[-71.4454069,42.2678883],[-71.4452598,42.2682975],[-71.4451046,42.2687178],[-71.4450248,42.2689445],[-71.444946,42.269167],[-71.4448648,42.2693982],[-71.4448246,42.269507],[-71.4447778,42.2696068],[-71.444734,42.2696893],[-71.4446206,42.2698533],[-71.4444088,42.2701213],[-71.4441988,42.2703768]]}},{"type":"Feature","properties":{"osm_way_id":1177412896,"course_order":15},"geometry":{"type":"LineString","coordinates":[[-71.4441988,42.2703768],[-71.4437951,42.2708616],[-71.4435343,42.2711768],[-71.443443,42.2712943],[-71.4433664,42.2713866],[-71.4432868,42.2714646],[-71.443162,42.2715668],[-71.4431012,42.2716093]]}},{"type":"Feature","properties":{"osm_way_id":1098221616,"course_order":16},"geometry":{"type":"LineString","coordinates":[[-71.4431012,42.2716093],[-71.4430525,42.2716434],[-71.442941,42.271708],[-71.442863,42.2717486],[-71.4427891,42.2717816],[-71.4425946,42.2718598],[-71.442204,42.272014],[-71.4420217,42.272094],[-71.4418424,42.2721703],[-71.4414926,42.2723315],[-71.4411592,42.2724988],[-71.4408958,42.2726289],[-71.4405109,42.2728197],[-71.4401678,42.2729917],[-71.4397431,42.2732115],[-71.4393049,42.2734487],[-71.438879,42.273688],[-71.438755,42.273759],[-71.438478,42.273913],[-71.438339,42.273991],[-71.438202,42.274052],[-71.4380448,42.274109]]}},{"type":"Feature","properties":{"osm_way_id":1098221615,"course_order":17},"geometry":{"type":"LineString","coordinates":[[-71.4380448,42.274109],[-71.4378995,42.2741523],[-71.4377726,42.2741835],[-71.4376291,42.2742122],[-71.4374801,42.274235],[-71.4373245,42.2742505],[-71.437153,42.2742587],[-71.4370008,42.2742592],[-71.4368526,42.2742499],[-71.4367087,42.2742378],[-71.4365892,42.2742196]]}},{"type":"Feature","properties":{"osm_way_id":447338473,"course_order":18},"geometry":{"type":"LineString","coordinates":[[-71.4365892,42.2742196],[-71.4363354,42.2741672],[-71.4361822,42.274132],[-71.4360815,42.2741139],[-71.435888,42.2740733],[-71.4357379,42.2740434],[-71.4351361,42.2739236],[-71.4350631,42.2739102],[-71.4350173,42.2739],[-71.4345807,42.2738241],[-71.4343284,42.2737794],[-71.43399,42.2737218],[-71.4336567,42.2736642],[-71.4334611,42.2736241],[-71.4333121,42.2735939],[-71.4331516,42.2735562],[-71.4330855,42.2735405],[-71.4326463,42.2734212],[-71.4325594,42.2733965],[-71.4321994,42.2732951],[-71.4320541,42.2732503],[-71.4318712,42.2731942],[-71.4317279,42.2731453],[-71.4315717,42.2730848],[-71.4314818,42.2730498],[-71.4313858,42.2730096],[-71.431255,42.2729527],[-71.4311234,42.2728869],[-71.4310085,42.2728241],[-71.43085,42.272741],[-71.4306166,42.2726034],[-71.4305661,42.2725747],[-71.4300936,42.2723072]]}},{"type":"Feature","properties":{"osm_way_id":1098221614,"course_order":19},"geometry":{"type":"LineString","coordinates":[[-71.4300936,42.2723072],[-71.4299929,42.2722565],[-71.4299126,42.2722223],[-71.4298434,42.2722022],[-71.4297763,42.2721851],[-71.429679,42.2721649],[-71.4295787,42.2721524],[-71.4294857,42.2721462]]}},{"type":"Feature","properties":{"osm_way_id":1098218612,"course_order":20},"geometry":{"type":"LineString","coordinates":[[-71.4294857,42.2721462],[-71.4293627,42.2721465],[-71.4292512,42.2721555],[-71.4291507,42.2721731],[-71.4290557,42.2721998],[-71.4290065,42.2722164],[-71.42899,42.272222]]}},{"type":"Feature","properties":{"osm_way_id":1098218611,"course_order":21},"geometry":{"type":"LineString","coordinates":[[-71.42899,42.272222],[-71.4289561,42.2722334],[-71.4288635,42.2722738],[-71.4287781,42.2723136],[-71.4277249,42.2728633],[-71.4275462,42.2729576],[-71.4271947,42.2731364],[-71.426484,42.2734978],[-71.4257463,42.2738808],[-71.4255271,42.2739912],[-71.4254337,42.2740382]]}},{"type":"Feature","properties":{"osm_way_id":1098218610,"course_order":22},"geometry":{"type":"LineString","coordinates":[[-71.4254337,42.2740382],[-71.4253585,42.2740761],[-71.4252753,42.274118],[-71.4251758,42.2741681],[-71.4250401,42.2742364],[-71.4248502,42.2743321]]}},{"type":"Feature","properties":{"osm_way_id":1098218609,"course_order":23},"geometry":{"type":"LineString","coordinates":[[-71.4248502,42.2743321],[-71.424793,42.2743606],[-71.4247359,42.2743874],[-71.4246764,42.2744118],[-71.4246049,42.274437],[-71.4243079,42.2745282],[-71.4242262,42.2745553]]}},{"type":"Feature","properties":{"osm_way_id":847194318,"course_order":24},"geometry":{"type":"LineString","coordinates":[[-71.4242262,42.2745553],[-71.4240895,42.274598],[-71.4238664,42.2746659],[-71.4236393,42.2747389],[-71.423583,42.2747562],[-71.422712,42.2750282],[-71.422624,42.2750564],[-71.4221764,42.2751997]]}},{"type":"Feature","properties":{"osm_way_id":1188627410,"course_order":25},"geometry":{"type":"LineString","coordinates":[[-71.4221764,42.2751997],[-71.4219207,42.2752789],[-71.4216651,42.2753567],[-71.4207583,42.2756053]]}},{"type":"Feature","properties":{"osm_way_id":847211009,"course_order":26},"geometry":{"type":"LineString","coordinates":[[-71.4207583,42.2756053],[-71.4207395,42.2756104],[-71.4206906,42.2756236],[-71.4202122,42.2757525],[-71.4201236,42.2757772],[-71.4200608,42.2757949],[-71.4197631,42.2758812],[-71.4194065,42.2759847],[-71.4191159,42.276069],[-71.4188948,42.2761332],[-71.4186062,42.2762188],[-71.4185714,42.2762291]]}},{"type":"Feature","properties":{"osm_way_id":940308360,"course_order":27},"geometry":{"type":"LineString","coordinates":[[-71.4185714,42.2762291],[-71.4183786,42.2762863],[-71.4182576,42.2763222],[-71.4181965,42.2763403],[-71.4180976,42.2763681]]}},{"type":"Feature","properties":{"osm_way_id":1092597164,"course_order":28},"geometry":{"type":"LineString","coordinates":[[-71.4180976,42.2763681],[-71.4180041,42.2763953],[-71.4175279,42.2765268],[-71.4173749,42.2765691],[-71.4171355,42.2766352],[-71.4170615,42.2766556],[-71.4170052,42.2766711],[-71.4167975,42.2767285]]}},{"type":"Feature","properties":{"osm_way_id":1050621848,"course_order":29},"geometry":{"type":"LineString","coordinates":[[-71.4167975,42.2767285],[-71.4165992,42.2767833],[-71.4165334,42.2768015],[-71.4162542,42.2768786],[-71.415875,42.2769873],[-71.4157077,42.2770299],[-71.4155384,42.277071],[-71.4154373,42.2770961]]}},{"type":"Feature","properties":{"osm_way_id":447338472,"course_order":30},"geometry":{"type":"LineString","coordinates":[[-71.4154373,42.2770961],[-71.4153362,42.2771211],[-71.4151152,42.2771716],[-71.4149645,42.2772045],[-71.4148196,42.277236],[-71.4143911,42.2773294],[-71.4143054,42.2773481],[-71.4133704,42.277546],[-71.4132428,42.277573],[-71.4132307,42.2775755],[-71.4129991,42.2776245],[-71.4128844,42.2776488],[-71.4126428,42.2776995],[-71.4123762,42.2777564],[-71.412066,42.277819],[-71.4117864,42.2778779]]}},{"type":"Feature","properties":{"osm_way_id":970225271,"course_order":31},"geometry":{"type":"LineString","coordinates":[[-71.4117864,42.2778779],[-71.4114144,42.2779504],[-71.4111581,42.2779979],[-71.4107997,42.2780636]]}},{"type":"Feature","properties":{"osm_way_id":847199259,"course_order":32},"geometry":{"type":"LineString","coordinates":[[-71.4107997,42.2780636],[-71.4105186,42.2781161]]}},{"type":"Feature","properties":{"osm_way_id":1396090187,"course_order":33},"geometry":{"type":"LineString","coordinates":[[-71.4105186,42.2781161],[-71.4101054,42.2781933],[-71.4099028,42.2782311],[-71.4097263,42.2782641],[-71.4096913,42.2782708],[-71.4096352,42.2782823],[-71.4095644,42.2782972]]}},{"type":"Feature","properties":{"osm_way_id":847474496,"course_order":34},"geometry":{"type":"LineString","coordinates":[[-71.4095644,42.2782972],[-71.4094178,42.27833]]}},{"type":"Feature","properties":{"osm_way_id":625308513,"course_order":35},"geometry":{"type":"LineString","coordinates":[[-71.4094178,42.27833],[-71.4092839,42.2783599],[-71.4092437,42.2783689],[-71.4089855,42.2784266],[-71.4088207,42.2784635],[-71.4084197,42.2785531]]}},{"type":"Feature","properties":{"osm_way_id":625308508,"course_order":36},"geometry":{"type":"LineString","coordinates":[[-71.4084197,42.2785531],[-71.4074189,42.2787768],[-71.4070717,42.2788542],[-71.406099,42.279071],[-71.4056545,42.2791716],[-71.405342,42.2792423],[-71.4049508,42.2793308],[-71.4037391,42.279605],[-71.4030464,42.2797617],[-71.4024245,42.2799064],[-71.4019076,42.2800267],[-71.4015962,42.2800992],[-71.4011738,42.280197],[-71.4008808,42.2802649],[-71.400487,42.2803561],[-71.4003157,42.2803958],[-71.3997722,42.2805217],[-71.3997017,42.2805381]]}},{"type":"Feature","properties":{"osm_way_id":1050621847,"course_order":37},"geometry":{"type":"LineString","coordinates":[[-71.3997017,42.2805381],[-71.3993229,42.2806211]]}},{"type":"Feature","properties":{"osm_way_id":149495494,"course_order":38},"geometry":{"type":"LineString","coordinates":[[-71.3993229,42.2806211],[-71.3979844,42.2809061],[-71.3977926,42.2809464]]}},{"type":"Feature","properties":{"osm_way_id":149696572,"course_order":39},"geometry":{"type":"LineString","coordinates":[[-71.3977926,42.2809464],[-71.3975787,42.2809917]]}},{"type":"Feature","properties":{"osm_way_id":1264335476,"course_order":40},"geometry":{"type":"LineString","coordinates":[[-71.3975787,42.2809917],[-71.3973859,42.2810326],[-71.3968726,42.2811444],[-71.3964185,42.2812396],[-71.396094,42.2813075],[-71.3957708,42.2813763],[-71.3956124,42.2814105],[-71.3951401,42.2815046],[-71.3949798,42.2815359],[-71.394852,42.2815608],[-71.3947431,42.2815801],[-71.3946027,42.2816037],[-71.39446,42.2816258],[-71.3943034,42.2816464],[-71.3941524,42.2816651],[-71.3940039,42.2816784],[-71.3938422,42.2816927],[-71.3937252,42.2817039],[-71.393528,42.2817173],[-71.3932995,42.2817316],[-71.3929136,42.2817558],[-71.3922942,42.2817946]]}},{"type":"Feature","properties":{"osm_way_id":1414051026,"course_order":41},"geometry":{"type":"LineString","coordinates":[[-71.3922942,42.2817946],[-71.3922057,42.2818008],[-71.3920935,42.2818086],[-71.3916259,42.2818412]]}},{"type":"Feature","properties":{"osm_way_id":1264335600,"course_order":42},"geometry":{"type":"LineString","coordinates":[[-71.3916259,42.2818412],[-71.3914144,42.281856],[-71.3911141,42.281877],[-71.3910562,42.2818819],[-71.3906622,42.2819149]]}},{"type":"Feature","properties":{"osm_way_id":149696573,"course_order":43},"geometry":{"type":"LineString","coordinates":[[-71.3906622,42.2819149],[-71.3902781,42.2819408],[-71.3902284,42.2819442],[-71.3899653,42.2819606],[-71.3895769,42.2819869],[-71.3891088,42.28202],[-71.3888218,42.282039],[-71.3882406,42.2820782],[-71.3878864,42.2821031],[-71.3877835,42.2821101],[-71.3875584,42.2821256],[-71.387208,42.2821477],[-71.3866964,42.2821766],[-71.3864189,42.2821929],[-71.3860673,42.2822119],[-71.3857238,42.2822318],[-71.385675,42.2822346],[-71.3855575,42.2822429],[-71.3845326,42.2823005],[-71.3844401,42.2823059],[-71.3836867,42.2823525],[-71.3835537,42.2823607],[-71.3833209,42.2823734],[-71.3832373,42.2823776],[-71.3827023,42.2824079],[-71.3826335,42.2824117],[-71.3823726,42.2824265],[-71.3820372,42.2824451],[-71.3820174,42.2824453],[-71.3818213,42.2824581],[-71.3816953,42.2824639],[-71.3815953,42.2824699],[-71.3813839,42.2824825],[-71.381151,42.2824905],[-71.3810726,42.2824928]]}},{"type":"Feature","properties":{"osm_way_id":1413241267,"course_order":44},"geometry":{"type":"LineString","coordinates":[[-71.3810726,42.2824928],[-71.3805824,42.2825088]]}},{"type":"Feature","properties":{"osm_way_id":847474509,"course_order":45},"geometry":{"type":"LineString","coordinates":[[-71.3805824,42.2825088],[-71.3804516,42.2825102],[-71.3801479,42.2825134],[-71.3799553,42.2825158],[-71.3798193,42.2825175],[-71.3792696,42.2825243],[-71.378922,42.2825287],[-71.3788335,42.2825298],[-71.3782432,42.2825371],[-71.3777624,42.2825461],[-71.3776733,42.282548]]}},{"type":"Feature","properties":{"osm_way_id":847483918,"course_order":46},"geometry":{"type":"LineString","coordinates":[[-71.3776733,42.282548],[-71.3771899,42.2825502],[-71.3763847,42.2825494],[-71.3762125,42.2825505],[-71.3760374,42.2825563],[-71.3759773,42.2825594],[-71.3758516,42.282566]]}},{"type":"Feature","properties":{"osm_way_id":847474497,"course_order":47},"geometry":{"type":"LineString","coordinates":[[-71.3758516,42.282566],[-71.3756868,42.2825788],[-71.3755225,42.2825954],[-71.3753454,42.2826159],[-71.3751714,42.2826388]]}},{"type":"Feature","properties":{"osm_way_id":1384939438,"course_order":48},"geometry":{"type":"LineString","coordinates":[[-71.3751714,42.2826388],[-71.3749645,42.2826712],[-71.3748341,42.2826915]]}},{"type":"Feature","properties":{"osm_way_id":721567401,"course_order":49},"geometry":{"type":"LineString","coordinates":[[-71.3748341,42.2826915],[-71.3746423,42.2827214]]}},{"type":"Feature","properties":{"osm_way_id":721567400,"course_order":50},"geometry":{"type":"LineString","coordinates":[[-71.3746423,42.2827214],[-71.374269,42.2827795]]}},{"type":"Feature","properties":{"osm_way_id":721567398,"course_order":51},"geometry":{"type":"LineString","coordinates":[[-71.374269,42.2827795],[-71.3740993,42.2828059]]}},{"type":"Feature","properties":{"osm_way_id":721567399,"course_order":52},"geometry":{"type":"LineString","coordinates":[[-71.3740993,42.2828059],[-71.3738551,42.2828439],[-71.3737537,42.2828604],[-71.3734825,42.2829046],[-71.3734041,42.2829174],[-71.3729398,42.2829948],[-71.372715,42.2830323],[-71.3724772,42.2830719],[-71.3720859,42.2831371],[-71.371932,42.2831628],[-71.370982,42.2833211],[-71.3704681,42.2834068],[-71.3701999,42.2834515],[-71.3691851,42.2836206],[-71.3691427,42.2836277],[-71.3684819,42.283737],[-71.3682055,42.2837816]]}},{"type":"Feature","properties":{"osm_way_id":123998577,"course_order":53},"geometry":{"type":"LineString","coordinates":[[-71.3682055,42.2837816],[-71.3680916,42.2837886],[-71.3680289,42.2837924]]}},{"type":"Feature","properties":{"osm_way_id":123998586,"course_order":54},"geometry":{"type":"LineString","coordinates":[[-71.3680289,42.2837924],[-71.3677777,42.2838043],[-71.3676142,42.2837985],[-71.367461,42.2837882],[-71.367325,42.2837719],[-71.3671961,42.283754],[-71.3669994,42.2837156],[-71.366758,42.283657],[-71.36513,42.283194],[-71.3646416,42.2830578],[-71.364237,42.282945],[-71.3638427,42.2828405],[-71.363692,42.2828005],[-71.3635311,42.2827579],[-71.3630416,42.2826434],[-71.3629383,42.2826199],[-71.3627617,42.2825797],[-71.3619645,42.2823982],[-71.3616087,42.2823186],[-71.3612797,42.2822526],[-71.361149,42.2822337],[-71.3609968,42.2822187],[-71.360656,42.2822062],[-71.3597537,42.2822085],[-71.3595855,42.2822152],[-71.359403,42.282225],[-71.3591487,42.2822488],[-71.358834,42.2822846],[-71.3585973,42.282313],[-71.3573224,42.2824862],[-71.3566497,42.2825759],[-71.3559708,42.2826659],[-71.3559041,42.2826746],[-71.3554845,42.2827294],[-71.3550125,42.282793],[-71.3546187,42.2828435],[-71.3539128,42.2829335],[-71.3533931,42.2829987],[-71.3530781,42.2830406],[-71.3525109,42.2831158]]}},{"type":"Feature","properties":{"osm_way_id":1367174319,"course_order":55},"geometry":{"type":"LineString","coordinates":[[-71.3525109,42.2831158],[-71.3523446,42.2831405],[-71.3522115,42.2831602],[-71.3519937,42.2831906],[-71.3517275,42.2832278],[-71.3511487,42.2833063],[-71.3508092,42.2833523],[-71.350339,42.2834161],[-71.3502214,42.2834308],[-71.3497446,42.2834904],[-71.3488986,42.2836004],[-71.3487931,42.2836133],[-71.3486904,42.2836274],[-71.348593,42.28364],[-71.3483621,42.2836696],[-71.3478064,42.2837384],[-71.3475379,42.2837692],[-71.3473067,42.2837971]]}},{"type":"Feature","properties":{"osm_way_id":9176115,"course_order":56},"geometry":{"type":"LineString","coordinates":[[-71.3473067,42.2837971],[-71.3471792,42.2838145],[-71.3470497,42.2838317],[-71.3464713,42.2839341],[-71.3463013,42.2839675],[-71.3460807,42.284009],[-71.3459287,42.2840338],[-71.3456669,42.2840822],[-71.3453026,42.2841526],[-71.3451586,42.2841793],[-71.3441395,42.2843753],[-71.3440364,42.284395],[-71.3431801,42.284559],[-71.3430333,42.284587],[-71.3428711,42.2846189],[-71.3423675,42.2847179],[-71.342059,42.2847786],[-71.3419567,42.2847987],[-71.3418831,42.2848132],[-71.3411611,42.2849561]]}},{"type":"Feature","properties":{"osm_way_id":1536789741,"course_order":57},"geometry":{"type":"LineString","coordinates":[[-71.3411611,42.2849561],[-71.3408362,42.2850204]]}},{"type":"Feature","properties":{"osm_way_id":1184843951,"course_order":58},"geometry":{"type":"LineString","coordinates":[[-71.3408362,42.2850204],[-71.3407692,42.2850332],[-71.3405161,42.2850814]]}},{"type":"Feature","properties":{"osm_way_id":9176263,"course_order":59},"geometry":{"type":"LineString","coordinates":[[-71.3405161,42.2850814],[-71.3403845,42.285112],[-71.3402527,42.2851525],[-71.3401509,42.2851869],[-71.3401134,42.2851996],[-71.3399738,42.2852515],[-71.3396802,42.2853607],[-71.339342,42.2854864],[-71.3388292,42.2856757],[-71.3387431,42.2857075],[-71.3384275,42.2858239]]}},{"type":"Feature","properties":{"osm_way_id":847404663,"course_order":60},"geometry":{"type":"LineString","coordinates":[[-71.3384275,42.2858239],[-71.3382536,42.2858883],[-71.3377577,42.2860749],[-71.3374811,42.2861743],[-71.3371377,42.2863022],[-71.3370167,42.2863473],[-71.3366602,42.2864801],[-71.3365691,42.286514],[-71.3361723,42.2866618],[-71.336019,42.2867189],[-71.3358632,42.2867769],[-71.3352552,42.2870034],[-71.3350581,42.2870766],[-71.3347225,42.2872013],[-71.3347024,42.2872088],[-71.3346208,42.287241],[-71.3345491,42.2872692],[-71.3343915,42.2873316],[-71.3341939,42.2874156],[-71.3338777,42.28755],[-71.3337622,42.2875989],[-71.3330396,42.2879045],[-71.3327511,42.2880265],[-71.3325833,42.2880975],[-71.3324822,42.2881403]]}},{"type":"Feature","properties":{"osm_way_id":847483914,"course_order":61},"geometry":{"type":"LineString","coordinates":[[-71.3324822,42.2881403],[-71.33231,42.2882123],[-71.3319169,42.2883767],[-71.3317564,42.2884479],[-71.331572,42.2885353],[-71.3313928,42.288627],[-71.3312474,42.2887041],[-71.33101,42.28883],[-71.330383,42.289169],[-71.329711,42.289521],[-71.3283031,42.290276],[-71.3279592,42.2904602],[-71.3269081,42.2910158],[-71.3264198,42.2912815],[-71.3249191,42.292103],[-71.3236846,42.2927921],[-71.3235033,42.292892],[-71.3232856,42.2930087],[-71.3230963,42.2931035],[-71.3228834,42.2932072],[-71.322735,42.2932748],[-71.3225932,42.2933344],[-71.3224423,42.2933936],[-71.3222887,42.2934516],[-71.3221287,42.2935064],[-71.3219345,42.2935704],[-71.3215265,42.2936954]]}},{"type":"Feature","properties":{"osm_way_id":1536793348,"course_order":62},"geometry":{"type":"LineString","coordinates":[[-71.3215265,42.2936954],[-71.3211384,42.2938167]]}},{"type":"Feature","properties":{"osm_way_id":1536793347,"course_order":63},"geometry":{"type":"LineString","coordinates":[[-71.3211384,42.2938167],[-71.3206509,42.293966]]}},{"type":"Feature","properties":{"osm_way_id":1536795907,"course_order":64},"geometry":{"type":"LineString","coordinates":[[-71.3206509,42.293966],[-71.32033,42.2940643],[-71.3200601,42.2941435],[-71.3191767,42.2943735],[-71.3191051,42.2943922]]}},{"type":"Feature","properties":{"osm_way_id":1536795908,"course_order":65},"geometry":{"type":"LineString","coordinates":[[-71.3191051,42.2943922],[-71.3184157,42.294577]]}},{"type":"Feature","properties":{"osm_way_id":9335246,"course_order":66},"geometry":{"type":"LineString","coordinates":[[-71.3184157,42.294577],[-71.3183029,42.2946072],[-71.317972,42.2947133],[-71.3176238,42.2948318],[-71.3165496,42.2951939],[-71.3162193,42.295292],[-71.3159215,42.2953735],[-71.3155415,42.2954605],[-71.3150287,42.2955622],[-71.3138868,42.2957696],[-71.31286,42.2959114],[-71.3121103,42.2959975],[-71.3117186,42.2960342],[-71.3115417,42.2960464],[-71.3105534,42.2960896],[-71.309025,42.2961504],[-71.308896,42.2961545],[-71.3079448,42.296183],[-71.307746,42.2961897],[-71.3075471,42.2961965],[-71.3066639,42.2962136],[-71.3055706,42.2962242],[-71.3047452,42.2962199],[-71.3042499,42.2962014],[-71.2997859,42.2959866],[-71.2993428,42.2959641],[-71.2990381,42.2959476]]}},{"type":"Feature","properties":{"osm_way_id":281688663,"course_order":67},"geometry":{"type":"LineString","coordinates":[[-71.2990381,42.2959476],[-71.2989511,42.2959396],[-71.298835,42.2959298],[-71.2987075,42.295924],[-71.2985356,42.2959242],[-71.2984247,42.2959283],[-71.2982736,42.2959402],[-71.2982161,42.2959421],[-71.2981512,42.2959457],[-71.2980235,42.2959549],[-71.2978401,42.295968],[-71.2969315,42.296049]]}},{"type":"Feature","properties":{"osm_way_id":847404667,"course_order":68},"geometry":{"type":"LineString","coordinates":[[-71.2969315,42.296049],[-71.2968542,42.2960586],[-71.2967826,42.2960678]]}},{"type":"Feature","properties":{"osm_way_id":847404666,"course_order":69},"geometry":{"type":"LineString","coordinates":[[-71.2967826,42.2960678],[-71.2966159,42.2960878],[-71.2951921,42.2962857],[-71.2950466,42.296306]]}},{"type":"Feature","properties":{"osm_way_id":988143493,"course_order":70},"geometry":{"type":"LineString","coordinates":[[-71.2950466,42.296306],[-71.294822,42.2963376],[-71.2945347,42.2963818],[-71.2942847,42.2964201]]}},{"type":"Feature","properties":{"osm_way_id":519841444,"course_order":71},"geometry":{"type":"LineString","coordinates":[[-71.2942847,42.2964201],[-71.2941838,42.2964326],[-71.2940327,42.296453],[-71.2934383,42.2965387],[-71.2932977,42.2965602],[-71.2932176,42.2965714]]}},{"type":"Feature","properties":{"osm_way_id":1181508758,"course_order":72},"geometry":{"type":"LineString","coordinates":[[-71.2932176,42.2965714],[-71.2931746,42.2965772],[-71.2930581,42.296594]]}},{"type":"Feature","properties":{"osm_way_id":1340309271,"course_order":73},"geometry":{"type":"LineString","coordinates":[[-71.2930581,42.296594],[-71.2930056,42.2966014],[-71.2929473,42.2966101],[-71.292901,42.2966172],[-71.2928797,42.2966211]]}},{"type":"Feature","properties":{"osm_way_id":521564814,"course_order":74},"geometry":{"type":"LineString","coordinates":[[-71.2928797,42.2966211],[-71.2928387,42.2966286],[-71.2927991,42.2966365],[-71.2927378,42.2966508],[-71.292676,42.2966668],[-71.2926214,42.2966811],[-71.2925719,42.296695],[-71.2925087,42.296715],[-71.2924273,42.2967448],[-71.2922442,42.2968114],[-71.2920229,42.2968929]]}},{"type":"Feature","properties":{"osm_way_id":1181508756,"course_order":75},"geometry":{"type":"LineString","coordinates":[[-71.2920229,42.2968929],[-71.2919409,42.2969231],[-71.2918861,42.2969433]]}},{"type":"Feature","properties":{"osm_way_id":521564811,"course_order":76},"geometry":{"type":"LineString","coordinates":[[-71.2918861,42.2969433],[-71.291672,42.2970201],[-71.2915167,42.2970777],[-71.2913852,42.2971245],[-71.2913109,42.2971503],[-71.2912205,42.2971806],[-71.2911162,42.297215]]}},{"type":"Feature","properties":{"osm_way_id":988143494,"course_order":77},"geometry":{"type":"LineString","coordinates":[[-71.2911162,42.297215],[-71.2903333,42.297474]]}},{"type":"Feature","properties":{"osm_way_id":123535282,"course_order":78},"geometry":{"type":"LineString","coordinates":[[-71.2903333,42.297474],[-71.2902781,42.2974933],[-71.2902069,42.2975199],[-71.2901432,42.2975455],[-71.2900877,42.2975697],[-71.2900351,42.2975948],[-71.289981,42.2976223],[-71.2899268,42.2976513],[-71.2898759,42.2976795],[-71.2898234,42.2977097],[-71.2897712,42.2977427],[-71.2897444,42.2977599],[-71.2897152,42.2977801],[-71.2896813,42.2978035]]}},{"type":"Feature","properties":{"osm_way_id":988143495,"course_order":79},"geometry":{"type":"LineString","coordinates":[[-71.2896813,42.2978035],[-71.2896243,42.2978436],[-71.2895712,42.2978846]]}},{"type":"Feature","properties":{"osm_way_id":9335200,"course_order":80},"geometry":{"type":"LineString","coordinates":[[-71.2895712,42.2978846],[-71.2895172,42.2979306],[-71.2895099,42.2979369],[-71.2894936,42.2979527],[-71.2894657,42.2979812],[-71.2894329,42.2980194],[-71.2893946,42.2980662],[-71.2893519,42.298122],[-71.2893014,42.2981886],[-71.2888682,42.2988236],[-71.2887403,42.2990112],[-71.288528,42.2993224],[-71.2884202,42.2994818],[-71.288123,42.2999248],[-71.2880137,42.3000876],[-71.2880095,42.3000938],[-71.2879418,42.3001948],[-71.287864,42.3003088],[-71.2876612,42.3005975],[-71.28752,42.3007941],[-71.287449,42.3008931],[-71.2873437,42.3010333],[-71.2872848,42.3011119],[-71.2872265,42.3011907],[-71.2871408,42.3013008],[-71.2870636,42.3013999],[-71.2869804,42.3015033],[-71.2869445,42.3015474],[-71.2869082,42.301592],[-71.2868462,42.301666],[-71.2867041,42.3018334],[-71.2866817,42.3018594],[-71.2865881,42.3019684]]}},{"type":"Feature","properties":{"osm_way_id":994017485,"course_order":81},"geometry":{"type":"LineString","coordinates":[[-71.2865881,42.3019684],[-71.2865334,42.3020331],[-71.286516,42.3020536],[-71.286358,42.302239],[-71.2863252,42.3022761]]}},{"type":"Feature","properties":{"osm_way_id":852225878,"course_order":82},"geometry":{"type":"LineString","coordinates":[[-71.2863252,42.3022761],[-71.2861354,42.3024803]]}},{"type":"Feature","properties":{"osm_way_id":852225879,"course_order":83},"geometry":{"type":"LineString","coordinates":[[-71.2861354,42.3024803],[-71.2860419,42.3025772]]}},{"type":"Feature","properties":{"osm_way_id":1535659912,"course_order":84},"geometry":{"type":"LineString","coordinates":[[-71.2860419,42.3025772],[-71.2855217,42.3031265],[-71.2852007,42.303454]]}},{"type":"Feature","properties":{"osm_way_id":994017484,"course_order":85},"geometry":{"type":"LineString","coordinates":[[-71.2852007,42.303454],[-71.2851508,42.303505],[-71.2850756,42.3035831],[-71.2850024,42.3036531],[-71.2849138,42.3037313],[-71.2848248,42.3038063],[-71.2847379,42.3038794],[-71.2846364,42.3039611],[-71.2845487,42.304028],[-71.2844516,42.3041018],[-71.282844,42.3052848],[-71.2825679,42.3054897],[-71.2823521,42.3056462],[-71.2820091,42.3058848],[-71.280544,42.306891]]}},{"type":"Feature","properties":{"osm_way_id":516625008,"course_order":86},"geometry":{"type":"LineString","coordinates":[[-71.280544,42.306891],[-71.2794944,42.3076591],[-71.2793441,42.3077686],[-71.2788306,42.3081198]]}},{"type":"Feature","properties":{"osm_way_id":847404668,"course_order":87},"geometry":{"type":"LineString","coordinates":[[-71.2788306,42.3081198],[-71.2785869,42.3083009]]}},{"type":"Feature","properties":{"osm_way_id":645010642,"course_order":88},"geometry":{"type":"LineString","coordinates":[[-71.2785869,42.3083009],[-71.2784553,42.3083967],[-71.2783707,42.3084882],[-71.2782817,42.3085673],[-71.2782236,42.3086222]]}},{"type":"Feature","properties":{"osm_way_id":516625009,"course_order":89},"geometry":{"type":"LineString","coordinates":[[-71.2782236,42.3086222],[-71.277613,42.3091896]]}},{"type":"Feature","properties":{"osm_way_id":994072938,"course_order":90},"geometry":{"type":"LineString","coordinates":[[-71.277613,42.3091896],[-71.2774697,42.3093291],[-71.2769442,42.3098408],[-71.2768712,42.3099119],[-71.2768198,42.3099619],[-71.2767595,42.3100206]]}},{"type":"Feature","properties":{"osm_way_id":1420052858,"course_order":91},"geometry":{"type":"LineString","coordinates":[[-71.2767595,42.3100206],[-71.2766923,42.310086]]}},{"type":"Feature","properties":{"osm_way_id":994072939,"course_order":92},"geometry":{"type":"LineString","coordinates":[[-71.2766923,42.310086],[-71.2765389,42.310242],[-71.2764868,42.310295],[-71.2764594,42.310323],[-71.276253,42.3105329],[-71.276237,42.3105491],[-71.2762146,42.3105719],[-71.276138,42.3106498]]}},{"type":"Feature","properties":{"osm_way_id":9334929,"course_order":93},"geometry":{"type":"LineString","coordinates":[[-71.276138,42.3106498],[-71.2760203,42.3107719],[-71.2759591,42.3108354],[-71.2759377,42.3108576],[-71.2756391,42.3111682],[-71.2754458,42.3113678],[-71.2753707,42.3114457],[-71.2749883,42.3118423],[-71.2749834,42.3118473],[-71.2749222,42.3119108],[-71.2744937,42.3123553],[-71.2741999,42.31266],[-71.2741592,42.3127027],[-71.2740979,42.3127682],[-71.2739276,42.3129432],[-71.2739045,42.3129669],[-71.2738241,42.3130495]]}},{"type":"Feature","properties":{"osm_way_id":9335206,"course_order":94},"geometry":{"type":"LineString","coordinates":[[-71.2738241,42.3130495],[-71.2737434,42.3131324],[-71.273695,42.3131821]]}},{"type":"Feature","properties":{"osm_way_id":985358011,"course_order":95},"geometry":{"type":"LineString","coordinates":[[-71.273695,42.3131821],[-71.2736582,42.3132199],[-71.2736289,42.31325]]}},{"type":"Feature","properties":{"osm_way_id":849625508,"course_order":96},"geometry":{"type":"LineString","coordinates":[[-71.2736289,42.31325],[-71.2735621,42.3133192],[-71.2735114,42.3133707]]}},{"type":"Feature","properties":{"osm_way_id":985358010,"course_order":97},"geometry":{"type":"LineString","coordinates":[[-71.2735114,42.3133707],[-71.2734558,42.3134247],[-71.2733794,42.3134963]]}},{"type":"Feature","properties":{"osm_way_id":985358005,"course_order":98},"geometry":{"type":"LineString","coordinates":[[-71.2733794,42.3134963],[-71.2733621,42.313512],[-71.2733421,42.3135277],[-71.2733165,42.3135471],[-71.2732955,42.313562],[-71.273275,42.3135758],[-71.2732533,42.3135901],[-71.27323,42.3136051],[-71.2731964,42.3136274],[-71.2731645,42.3136473]]}},{"type":"Feature","properties":{"osm_way_id":849625670,"course_order":99},"geometry":{"type":"LineString","coordinates":[[-71.2731645,42.3136473],[-71.2725659,42.314015],[-71.2724771,42.3140728]]}},{"type":"Feature","properties":{"osm_way_id":93394076,"course_order":100},"geometry":{"type":"LineString","coordinates":[[-71.2724771,42.3140728],[-71.2720352,42.3143523],[-71.2720264,42.3143579]]}},{"type":"Feature","properties":{"osm_way_id":120608067,"course_order":101},"geometry":{"type":"LineString","coordinates":[[-71.2720264,42.3143579],[-71.2718942,42.31444]]}},{"type":"Feature","properties":{"osm_way_id":1525405931,"course_order":102},"geometry":{"type":"LineString","coordinates":[[-71.2718942,42.31444],[-71.271846,42.31447]]}},{"type":"Feature","properties":{"osm_way_id":533571279,"course_order":103},"geometry":{"type":"LineString","coordinates":[[-71.271846,42.31447],[-71.2717447,42.31454],[-71.2715013,42.3147007]]}},{"type":"Feature","properties":{"osm_way_id":1525405932,"course_order":104},"geometry":{"type":"LineString","coordinates":[[-71.2715013,42.3147007],[-71.2713849,42.3147774]]}},{"type":"Feature","properties":{"osm_way_id":996182932,"course_order":105},"geometry":{"type":"LineString","coordinates":[[-71.2713849,42.3147774],[-71.2711082,42.314959],[-71.2710187,42.3150179],[-71.2708885,42.3151034]]}},{"type":"Feature","properties":{"osm_way_id":850474820,"course_order":106},"geometry":{"type":"LineString","coordinates":[[-71.2708885,42.3151034],[-71.270627,42.3152755],[-71.2702997,42.3154907],[-71.269909,42.3157464],[-71.2697582,42.3158451],[-71.2692738,42.3161703],[-71.2692434,42.3161899],[-71.2691264,42.3162716],[-71.2688938,42.3164339],[-71.2687958,42.316503],[-71.2685743,42.3166574]]}},{"type":"Feature","properties":{"osm_way_id":991876435,"course_order":107},"geometry":{"type":"LineString","coordinates":[[-71.2685743,42.3166574],[-71.2684372,42.3167535],[-71.2680344,42.3170381],[-71.2679074,42.3171257],[-71.2679005,42.3171305],[-71.2678,42.3171998],[-71.2676095,42.3173299],[-71.2670236,42.3177386],[-71.2667419,42.3179357],[-71.266068,42.318386],[-71.2653701,42.3188426],[-71.2652734,42.3189112],[-71.2652406,42.3189351]]}},{"type":"Feature","properties":{"osm_way_id":992153931,"course_order":108},"geometry":{"type":"LineString","coordinates":[[-71.2652406,42.3189351],[-71.2651662,42.3189916],[-71.2650882,42.3190528],[-71.2650047,42.3191215]]}},{"type":"Feature","properties":{"osm_way_id":992153929,"course_order":109},"geometry":{"type":"LineString","coordinates":[[-71.2650047,42.3191215],[-71.2649343,42.3191813],[-71.2648661,42.3192426],[-71.2648319,42.3192734]]}},{"type":"Feature","properties":{"osm_way_id":991876436,"course_order":110},"geometry":{"type":"LineString","coordinates":[[-71.2648319,42.3192734],[-71.2647761,42.3193252],[-71.2647241,42.3193755],[-71.2647032,42.319397],[-71.264685,42.3194158],[-71.2646391,42.3194662]]}},{"type":"Feature","properties":{"osm_way_id":992153930,"course_order":111},"geometry":{"type":"LineString","coordinates":[[-71.2646391,42.3194662],[-71.264617,42.3194901],[-71.264588,42.3195237],[-71.264561,42.3195565],[-71.2645161,42.3196128],[-71.264474,42.3196677],[-71.2644287,42.31973],[-71.2643781,42.3198009],[-71.2643276,42.3198729],[-71.2642855,42.3199383],[-71.2642505,42.3199957]]}},{"type":"Feature","properties":{"osm_way_id":382761109,"course_order":112},"geometry":{"type":"LineString","coordinates":[[-71.2642505,42.3199957],[-71.2642157,42.3200542],[-71.264183,42.3201133],[-71.2641522,42.320171],[-71.263799,42.3208623],[-71.2637855,42.3208888],[-71.2637136,42.3210296],[-71.2637017,42.3210531],[-71.2636691,42.3211219],[-71.2636487,42.3211649],[-71.2636315,42.3212063],[-71.2636074,42.3212671],[-71.2635818,42.3213349],[-71.2635189,42.3215125],[-71.2634078,42.321821]]}},{"type":"Feature","properties":{"osm_way_id":1391058281,"course_order":113},"geometry":{"type":"LineString","coordinates":[[-71.2634078,42.321821],[-71.2634028,42.3218349],[-71.2633642,42.321941],[-71.2633241,42.322047]]}},{"type":"Feature","properties":{"osm_way_id":1391058282,"course_order":114},"geometry":{"type":"LineString","coordinates":[[-71.2633241,42.322047],[-71.2632854,42.3221464],[-71.2632615,42.3222049],[-71.2632243,42.3222908],[-71.2631846,42.3223743],[-71.2631461,42.3224518],[-71.2631056,42.3225267],[-71.2630353,42.3226551],[-71.2629731,42.3227621],[-71.2629084,42.3228694]]}},{"type":"Feature","properties":{"osm_way_id":958101064,"course_order":115},"geometry":{"type":"LineString","coordinates":[[-71.2629084,42.3228694],[-71.2628785,42.3229143],[-71.2628494,42.322958],[-71.2627397,42.3231171],[-71.2626978,42.3231782],[-71.2626567,42.3232382]]}},{"type":"Feature","properties":{"osm_way_id":958101063,"course_order":116},"geometry":{"type":"LineString","coordinates":[[-71.2626567,42.3232382],[-71.2626378,42.3232639],[-71.2625916,42.323326],[-71.2625466,42.3233851],[-71.2625112,42.3234292],[-71.2624747,42.323476],[-71.2624437,42.3235141]]}},{"type":"Feature","properties":{"osm_way_id":958101062,"course_order":117},"geometry":{"type":"LineString","coordinates":[[-71.2624437,42.3235141],[-71.2624321,42.3235288],[-71.2623551,42.3236188],[-71.2623349,42.3236422],[-71.2623156,42.3236644],[-71.2622981,42.3236839],[-71.2622734,42.3237111],[-71.262248,42.3237382],[-71.2622223,42.3237647]]}},{"type":"Feature","properties":{"osm_way_id":1091687000,"course_order":118},"geometry":{"type":"LineString","coordinates":[[-71.2622223,42.3237647],[-71.2621974,42.3237908],[-71.2621691,42.3238197],[-71.2621268,42.3238597],[-71.2621045,42.3238801],[-71.2620477,42.3239306],[-71.2619857,42.3239856],[-71.2618967,42.3240654],[-71.2618309,42.3241231],[-71.2613162,42.3245753],[-71.2612313,42.324653],[-71.2611679,42.3247041],[-71.2611175,42.3247424],[-71.2610816,42.3247678]]}},{"type":"Feature","properties":{"osm_way_id":1091687001,"course_order":119},"geometry":{"type":"LineString","coordinates":[[-71.2610816,42.3247678],[-71.2610701,42.324776],[-71.2610215,42.3248094],[-71.2609765,42.3248392],[-71.2609315,42.3248663],[-71.260888,42.3248908]]}},{"type":"Feature","properties":{"osm_way_id":958101061,"course_order":120},"geometry":{"type":"LineString","coordinates":[[-71.260888,42.3248908],[-71.2608656,42.3249036],[-71.2608207,42.324928],[-71.2607777,42.324949],[-71.2607203,42.324975],[-71.2606596,42.3250003],[-71.2605955,42.3250247],[-71.2605204,42.3250492],[-71.2604426,42.325072],[-71.2603684,42.3250921],[-71.2602929,42.3251098],[-71.2602197,42.3251258],[-71.260188,42.3251325],[-71.2601553,42.3251391],[-71.2601227,42.3251452],[-71.2600895,42.3251511],[-71.2600597,42.3251553],[-71.2600258,42.3251604],[-71.2599882,42.3251659],[-71.2599642,42.3251686],[-71.2599204,42.3251729],[-71.2598773,42.3251766],[-71.2598227,42.3251816],[-71.2597763,42.3251849],[-71.2597202,42.3251888],[-71.2596235,42.3251957],[-71.2593789,42.3252141],[-71.259318,42.3252183]]}},{"type":"Feature","properties":{"osm_way_id":957002569,"course_order":121},"geometry":{"type":"LineString","coordinates":[[-71.259318,42.3252183],[-71.2592527,42.3252233],[-71.2589427,42.3252472]]}},{"type":"Feature","properties":{"osm_way_id":533570503,"course_order":122},"geometry":{"type":"LineString","coordinates":[[-71.2589427,42.3252472],[-71.2586339,42.3252723]]}},{"type":"Feature","properties":{"osm_way_id":9123922,"course_order":123},"geometry":{"type":"LineString","coordinates":[[-71.2586339,42.3252723],[-71.2584282,42.325293]]}},{"type":"Feature","properties":{"osm_way_id":990602890,"course_order":124},"geometry":{"type":"LineString","coordinates":[[-71.2584282,42.325293],[-71.2582456,42.3253103]]}},{"type":"Feature","properties":{"osm_way_id":9123999,"course_order":125},"geometry":{"type":"LineString","coordinates":[[-71.2582456,42.3253103],[-71.2578893,42.3253459],[-71.2578615,42.3253491],[-71.2578107,42.3253557],[-71.2577545,42.3253639]]}},{"type":"Feature","properties":{"osm_way_id":570834599,"course_order":126},"geometry":{"type":"LineString","coordinates":[[-71.2577545,42.3253639],[-71.2576743,42.3253769],[-71.2576011,42.3253897],[-71.2575564,42.3253985],[-71.257478,42.3254136]]}},{"type":"Feature","properties":{"osm_way_id":570834600,"course_order":127},"geometry":{"type":"LineString","coordinates":[[-71.257478,42.3254136],[-71.2574042,42.3254308],[-71.2573309,42.3254476],[-71.2572176,42.3254768],[-71.2571639,42.3254925],[-71.2571042,42.32551],[-71.2570189,42.325537],[-71.2569758,42.3255506],[-71.2568394,42.325597],[-71.2567074,42.3256462],[-71.256605,42.325685],[-71.2564959,42.3257268],[-71.2564434,42.3257457],[-71.2563824,42.3257671],[-71.2562786,42.3258019],[-71.2557596,42.325969],[-71.255493,42.3260549],[-71.2553544,42.3261004],[-71.2552158,42.3261445],[-71.2550205,42.3262056],[-71.2549502,42.3262302],[-71.2548831,42.3262552]]}},{"type":"Feature","properties":{"osm_way_id":958542120,"course_order":128},"geometry":{"type":"LineString","coordinates":[[-71.2548831,42.3262552],[-71.2548117,42.3262844],[-71.2547433,42.3263157],[-71.2546809,42.3263471],[-71.2546237,42.326378],[-71.2545697,42.3264119],[-71.2545123,42.3264504],[-71.2544458,42.3264968],[-71.254151,42.3267236]]}},{"type":"Feature","properties":{"osm_way_id":1026757817,"course_order":129},"geometry":{"type":"LineString","coordinates":[[-71.254151,42.3267236],[-71.253928,42.3268951],[-71.2537835,42.3270024]]}},{"type":"Feature","properties":{"osm_way_id":9124624,"course_order":130},"geometry":{"type":"LineString","coordinates":[[-71.2537835,42.3270024],[-71.2535958,42.3270921],[-71.2535192,42.327132],[-71.2534509,42.3271725],[-71.2533139,42.3272557],[-71.2532828,42.3272755],[-71.2532651,42.3272866],[-71.2532109,42.327321],[-71.2531435,42.3273663]]}},{"type":"Feature","properties":{"osm_way_id":1074636211,"course_order":131},"geometry":{"type":"LineString","coordinates":[[-71.2531435,42.3273663],[-71.2530465,42.3274335]]}},{"type":"Feature","properties":{"osm_way_id":844861902,"course_order":132},"geometry":{"type":"LineString","coordinates":[[-71.2530465,42.3274335],[-71.2530009,42.327467]]}},{"type":"Feature","properties":{"osm_way_id":949577810,"course_order":133},"geometry":{"type":"LineString","coordinates":[[-71.2530009,42.327467],[-71.2529438,42.327506],[-71.252931,42.3275147],[-71.2528341,42.3275811]]}},{"type":"Feature","properties":{"osm_way_id":844861904,"course_order":134},"geometry":{"type":"LineString","coordinates":[[-71.2528341,42.3275811],[-71.2522567,42.3279764]]}},{"type":"Feature","properties":{"osm_way_id":9124270,"course_order":135},"geometry":{"type":"LineString","coordinates":[[-71.2522567,42.3279764],[-71.2514341,42.3285427]]}},{"type":"Feature","properties":{"osm_way_id":958974737,"course_order":136},"geometry":{"type":"LineString","coordinates":[[-71.2514341,42.3285427],[-71.2513735,42.3285844]]}},{"type":"Feature","properties":{"osm_way_id":9124658,"course_order":137},"geometry":{"type":"LineString","coordinates":[[-71.2513735,42.3285844],[-71.2513391,42.3286068],[-71.251128,42.3287506],[-71.251048,42.328806],[-71.2510224,42.328824],[-71.2509993,42.3288424],[-71.2509739,42.3288619],[-71.2509501,42.328884],[-71.2509274,42.3289053],[-71.2509094,42.3289276],[-71.2508931,42.3289504],[-71.2508718,42.328986]]}},{"type":"Feature","properties":{"osm_way_id":9124445,"course_order":138},"geometry":{"type":"LineString","coordinates":[[-71.2508718,42.328986],[-71.2508018,42.3290312],[-71.2507426,42.3290708],[-71.2506858,42.3291065],[-71.2506198,42.3291475],[-71.25055,42.3291923],[-71.2504988,42.3292219]]}},{"type":"Feature","properties":{"osm_way_id":541856532,"course_order":139},"geometry":{"type":"LineString","coordinates":[[-71.2504988,42.3292219],[-71.250458,42.3292464],[-71.2503747,42.3292972],[-71.2502957,42.3293422],[-71.2502077,42.329389],[-71.2501342,42.3294238],[-71.2500601,42.3294571],[-71.2499813,42.3294888],[-71.2498951,42.329523],[-71.2498189,42.3295502],[-71.2497464,42.3295735],[-71.2496736,42.3295997]]}},{"type":"Feature","properties":{"osm_way_id":1181033174,"course_order":140},"geometry":{"type":"LineString","coordinates":[[-71.2496736,42.3295997],[-71.2496306,42.3296142]]}},{"type":"Feature","properties":{"osm_way_id":1181033175,"course_order":141},"geometry":{"type":"LineString","coordinates":[[-71.2496306,42.3296142],[-71.2495314,42.3296475],[-71.2492642,42.329739]]}},{"type":"Feature","properties":{"osm_way_id":487500877,"course_order":142},"geometry":{"type":"LineString","coordinates":[[-71.2492642,42.329739],[-71.2492232,42.329742],[-71.249184,42.329745],[-71.2491409,42.3297493],[-71.2490992,42.3297549],[-71.2490616,42.3297608],[-71.2490266,42.329768],[-71.2489932,42.3297781],[-71.2489517,42.3297912],[-71.2488965,42.3298112]]}},{"type":"Feature","properties":{"osm_way_id":1183773702,"course_order":143},"geometry":{"type":"LineString","coordinates":[[-71.2488965,42.3298112],[-71.2488472,42.3298291],[-71.2488129,42.3298421],[-71.2487758,42.3298567],[-71.2487404,42.3298724],[-71.2487039,42.32989],[-71.248667,42.3299078],[-71.2486355,42.3299241],[-71.2486199,42.3299339],[-71.248608,42.3299445],[-71.2485936,42.3299602],[-71.248583,42.3299737],[-71.2485267,42.330045]]}},{"type":"Feature","properties":{"osm_way_id":518440798,"course_order":144},"geometry":{"type":"LineString","coordinates":[[-71.2485267,42.330045],[-71.2484723,42.330085],[-71.2484553,42.3300985],[-71.2484401,42.3301121],[-71.2484223,42.3301305],[-71.2484031,42.3301519],[-71.2483804,42.3301793],[-71.2483293,42.3302421],[-71.2481231,42.3305059]]}},{"type":"Feature","properties":{"osm_way_id":1183566541,"course_order":145},"geometry":{"type":"LineString","coordinates":[[-71.2481231,42.3305059],[-71.2480188,42.3306395]]}},{"type":"Feature","properties":{"osm_way_id":1183566540,"course_order":146},"geometry":{"type":"LineString","coordinates":[[-71.2480188,42.3306395],[-71.2477774,42.3309693]]}},{"type":"Feature","properties":{"osm_way_id":487500879,"course_order":147},"geometry":{"type":"LineString","coordinates":[[-71.2477774,42.3309693],[-71.2475174,42.3313378],[-71.2474339,42.3314479],[-71.2473456,42.3315625],[-71.2472577,42.3316751],[-71.2471624,42.3317919],[-71.247063,42.3319059],[-71.2469659,42.3320116],[-71.2468741,42.3321075],[-71.2467814,42.3322017],[-71.2466849,42.3322939],[-71.2465779,42.3323905],[-71.2464629,42.332486],[-71.2463448,42.3325791],[-71.2461787,42.3327135],[-71.2460421,42.3328241]]}},{"type":"Feature","properties":{"osm_way_id":426586610,"course_order":148},"geometry":{"type":"LineString","coordinates":[[-71.2460421,42.3328241],[-71.245945,42.3329016],[-71.2456611,42.3331284],[-71.2455469,42.3332185],[-71.245424,42.3333107]]}},{"type":"Feature","properties":{"osm_way_id":426586611,"course_order":149},"geometry":{"type":"LineString","coordinates":[[-71.245424,42.3333107],[-71.2450019,42.333614]]}},{"type":"Feature","properties":{"osm_way_id":71867211,"course_order":150},"geometry":{"type":"LineString","coordinates":[[-71.2450019,42.333614],[-71.2448681,42.3337143]]}},{"type":"Feature","properties":{"osm_way_id":962509076,"course_order":151},"geometry":{"type":"LineString","coordinates":[[-71.2448681,42.3337143],[-71.2447246,42.3338232]]}},{"type":"Feature","properties":{"osm_way_id":71867210,"course_order":152},"geometry":{"type":"LineString","coordinates":[[-71.2447246,42.3338232],[-71.2445574,42.3339526],[-71.2444696,42.3340205]]}},{"type":"Feature","properties":{"osm_way_id":962509077,"course_order":153},"geometry":{"type":"LineString","coordinates":[[-71.2444696,42.3340205],[-71.2443214,42.3341365],[-71.2442576,42.3341862],[-71.244192,42.334237],[-71.244132,42.3342826],[-71.2440701,42.3343296]]}},{"type":"Feature","properties":{"osm_way_id":847039525,"course_order":154},"geometry":{"type":"LineString","coordinates":[[-71.2440701,42.3343296],[-71.2439479,42.3344202],[-71.2438439,42.3344947],[-71.2437637,42.3345508],[-71.2436995,42.3345965],[-71.2435648,42.3346854],[-71.2433826,42.3348063],[-71.2428664,42.3351432],[-71.2427229,42.3352419],[-71.2426068,42.3353191],[-71.2425036,42.3353923],[-71.2424025,42.3354741],[-71.2423097,42.3355618],[-71.2422025,42.3356774],[-71.2420746,42.3358553],[-71.2419324,42.3360672],[-71.2418716,42.3361578],[-71.2416043,42.3365633],[-71.2410159,42.3375773]]}},{"type":"Feature","properties":{"osm_way_id":518441626,"course_order":155},"geometry":{"type":"LineString","coordinates":[[-71.2410159,42.3375773],[-71.2409081,42.3377738]]}},{"type":"Feature","properties":{"osm_way_id":518441856,"course_order":156},"geometry":{"type":"LineString","coordinates":[[-71.2409081,42.3377738],[-71.2406661,42.3382088],[-71.2405981,42.3383311]]}},{"type":"Feature","properties":{"osm_way_id":518441855,"course_order":157},"geometry":{"type":"LineString","coordinates":[[-71.2405981,42.3383311],[-71.2405349,42.3384387],[-71.2401466,42.3391003]]}},{"type":"Feature","properties":{"osm_way_id":518442111,"course_order":158},"geometry":{"type":"LineString","coordinates":[[-71.2401466,42.3391003],[-71.2400873,42.3392048]]}},{"type":"Feature","properties":{"osm_way_id":518442112,"course_order":159},"geometry":{"type":"LineString","coordinates":[[-71.2400873,42.3392048],[-71.2399022,42.3395113],[-71.2397998,42.3396788]]}},{"type":"Feature","properties":{"osm_way_id":518441630,"course_order":160},"geometry":{"type":"LineString","coordinates":[[-71.2397998,42.3396788],[-71.239634,42.3399336],[-71.2395479,42.3400582],[-71.2394519,42.3401901],[-71.2393427,42.3403328],[-71.2392427,42.3404455],[-71.2391393,42.340557],[-71.239067,42.3406315],[-71.2389895,42.3407037]]}},{"type":"Feature","properties":{"osm_way_id":426489970,"course_order":161},"geometry":{"type":"LineString","coordinates":[[-71.2389895,42.3407037],[-71.2387752,42.3409093],[-71.2387525,42.3409301],[-71.238625,42.341047]]}},{"type":"Feature","properties":{"osm_way_id":9125895,"course_order":162},"geometry":{"type":"LineString","coordinates":[[-71.238625,42.341047],[-71.2384826,42.3409467],[-71.2380758,42.3406599],[-71.237934,42.34056],[-71.2375857,42.3403086]]}},{"type":"Feature","properties":{"osm_way_id":1435022069,"course_order":163},"geometry":{"type":"LineString","coordinates":[[-71.2375857,42.3403086],[-71.237376,42.3401573],[-71.237251,42.3400783],[-71.2370665,42.339974]]}},{"type":"Feature","properties":{"osm_way_id":426491274,"course_order":164},"geometry":{"type":"LineString","coordinates":[[-71.2370665,42.339974],[-71.2368563,42.3398831],[-71.236589,42.339778],[-71.2363086,42.3396745],[-71.2360264,42.3395872],[-71.2357952,42.3395233],[-71.2355526,42.3394678],[-71.2352626,42.3394107],[-71.2349108,42.3393625],[-71.2345324,42.3393232],[-71.2342552,42.3393096],[-71.2336519,42.339297],[-71.2335985,42.339296],[-71.2331869,42.3392879],[-71.232836,42.339281],[-71.232051,42.339279],[-71.2313216,42.3392625],[-71.2306846,42.3392525],[-71.229912,42.339219],[-71.229667,42.339201],[-71.2296444,42.3391989],[-71.229409,42.339177],[-71.229218,42.339155],[-71.229106,42.339142],[-71.228622,42.33905],[-71.2283844,42.3389894],[-71.2283422,42.3389787],[-71.228053,42.338893],[-71.227661,42.33876],[-71.227367,42.338645],[-71.226958,42.338448],[-71.2267636,42.3383387],[-71.2264678,42.3381724],[-71.226444,42.338159],[-71.225838,42.337798],[-71.22577,42.3377538],[-71.225466,42.337556],[-71.225093,42.337304],[-71.224848,42.337152],[-71.224616,42.33703],[-71.2243449,42.3369234],[-71.2242204,42.3368774]]}},{"type":"Feature","properties":{"osm_way_id":426491276,"course_order":165},"geometry":{"type":"LineString","coordinates":[[-71.2242204,42.3368774],[-71.2241201,42.3368465],[-71.2240281,42.3368211],[-71.2239414,42.3367976],[-71.2238091,42.3367628],[-71.2237429,42.336748],[-71.2236405,42.3367293]]}},{"type":"Feature","properties":{"osm_way_id":426491275,"course_order":166},"geometry":{"type":"LineString","coordinates":[[-71.2236405,42.3367293],[-71.2235376,42.3367175],[-71.2234998,42.3367131],[-71.2233348,42.3366935],[-71.2232298,42.3366836],[-71.2231324,42.3366757]]}},{"type":"Feature","properties":{"osm_way_id":426491273,"course_order":167},"geometry":{"type":"LineString","coordinates":[[-71.2231324,42.3366757],[-71.2229953,42.336675],[-71.2226893,42.3366699],[-71.2224831,42.3366729],[-71.2223038,42.3366781],[-71.2221202,42.3366852],[-71.221965,42.3366915],[-71.221807,42.3367005],[-71.2216449,42.3367145],[-71.2215234,42.3367282],[-71.2213945,42.3367476],[-71.2212526,42.3367724],[-71.2211221,42.3367998],[-71.2209879,42.3368334],[-71.220862,42.3368676],[-71.2207379,42.3369049],[-71.2206242,42.3369428],[-71.2205095,42.3369855],[-71.2203829,42.3370384],[-71.2202744,42.3370855],[-71.2201932,42.3371263],[-71.220119,42.3371631]]}},{"type":"Feature","properties":{"osm_way_id":426491272,"course_order":168},"geometry":{"type":"LineString","coordinates":[[-71.220119,42.3371631],[-71.2198433,42.3373172]]}},{"type":"Feature","properties":{"osm_way_id":9126300,"course_order":169},"geometry":{"type":"LineString","coordinates":[[-71.2198433,42.3373172],[-71.2198206,42.3373289],[-71.2197587,42.337361],[-71.2196713,42.3374054],[-71.2195944,42.3374398],[-71.2195039,42.3374723],[-71.2194076,42.3374967],[-71.2193066,42.3375183],[-71.2192038,42.337533],[-71.2190945,42.3375427],[-71.2189844,42.3375506],[-71.2188464,42.3375524],[-71.2187611,42.3375473],[-71.218674,42.3375408],[-71.2185858,42.3375286],[-71.2184886,42.3375132],[-71.2183889,42.3374922],[-71.2182993,42.3374684],[-71.2182111,42.3374407],[-71.218112,42.337405],[-71.2180156,42.3373663],[-71.2179052,42.337319],[-71.2177791,42.3372691],[-71.2176364,42.3372153],[-71.2174602,42.3371536],[-71.2172539,42.3370855],[-71.2171104,42.337041],[-71.216951,42.336998],[-71.216804,42.3369593],[-71.2166436,42.3369217],[-71.2165055,42.3368927],[-71.2163651,42.3368648],[-71.2162629,42.3368487],[-71.2161698,42.3368412],[-71.2160763,42.3368364],[-71.2159893,42.3368384],[-71.215899,42.3368429],[-71.2158064,42.3368572],[-71.2157031,42.336877],[-71.2155998,42.3368974],[-71.2155125,42.3369233],[-71.2154186,42.3369548],[-71.2153193,42.3369894],[-71.2152003,42.3370348],[-71.2150749,42.3370845],[-71.2149497,42.3371349],[-71.2148251,42.3371876],[-71.2145209,42.3373181],[-71.2142422,42.3374423],[-71.2141219,42.3374953],[-71.2140035,42.3375455],[-71.2138904,42.337592],[-71.2137777,42.3376368],[-71.213678,42.337674],[-71.2135951,42.3377025],[-71.2135793,42.3377079],[-71.2134752,42.3377402],[-71.2133054,42.3377915],[-71.2132206,42.3378163],[-71.2131126,42.3378441],[-71.2130036,42.3378702],[-71.2128669,42.3379002],[-71.2127217,42.3379295],[-71.212578,42.3379571],[-71.2124417,42.3379778],[-71.2123089,42.3379948],[-71.2122029,42.3380048],[-71.2120959,42.3380125]]}},{"type":"Feature","properties":{"osm_way_id":426450135,"course_order":170},"geometry":{"type":"LineString","coordinates":[[-71.2120959,42.3380125],[-71.2120023,42.3380169],[-71.2119062,42.3380195],[-71.2117915,42.3380219],[-71.2117708,42.3380218],[-71.2116708,42.3380219],[-71.2115853,42.3380143]]}},{"type":"Feature","properties":{"osm_way_id":426450131,"course_order":171},"geometry":{"type":"LineString","coordinates":[[-71.2115853,42.3380143],[-71.2114454,42.3380147],[-71.2114291,42.3380144],[-71.2112745,42.3380006],[-71.2111119,42.3379837],[-71.210608,42.3379236],[-71.2103979,42.3378998],[-71.2102482,42.3378869],[-71.2101087,42.3378797],[-71.2099519,42.3378754],[-71.2097921,42.3378808],[-71.2095568,42.3378926],[-71.2093218,42.3379164],[-71.2090454,42.3379634],[-71.208825,42.3380152],[-71.208644,42.3380674],[-71.2082668,42.338198],[-71.2081224,42.338248],[-71.2078248,42.3383599],[-71.2075913,42.3384332]]}},{"type":"Feature","properties":{"osm_way_id":426450133,"course_order":172},"geometry":{"type":"LineString","coordinates":[[-71.2075913,42.3384332],[-71.2072622,42.3385164],[-71.2070717,42.3385447],[-71.2070527,42.3385475],[-71.2069129,42.3385676]]}},{"type":"Feature","properties":{"osm_way_id":426450132,"course_order":173},"geometry":{"type":"LineString","coordinates":[[-71.2069129,42.3385676],[-71.2067533,42.3385766],[-71.2064144,42.3385958],[-71.2063708,42.3385971]]}},{"type":"Feature","properties":{"osm_way_id":426450134,"course_order":174},"geometry":{"type":"LineString","coordinates":[[-71.2063708,42.3385971],[-71.2060766,42.3386055],[-71.2059388,42.3386055],[-71.2058824,42.3386047],[-71.2056483,42.3385863],[-71.2053992,42.3385587],[-71.2051335,42.3385252],[-71.2048311,42.338472],[-71.2045219,42.3384004],[-71.2042694,42.3383354],[-71.2040183,42.3382632],[-71.2035803,42.3381231],[-71.203309,42.338029],[-71.2030923,42.3379758],[-71.202574,42.337872],[-71.202274,42.337837],[-71.202213,42.33783],[-71.201974,42.337811],[-71.201557,42.337805],[-71.201067,42.337827],[-71.2009612,42.337837],[-71.200786,42.3378536]]}},{"type":"Feature","properties":{"osm_way_id":926777399,"course_order":175},"geometry":{"type":"LineString","coordinates":[[-71.200786,42.3378536],[-71.200509,42.33788],[-71.200079,42.337915],[-71.199663,42.337937],[-71.199197,42.337936],[-71.198781,42.337919],[-71.1985931,42.3378956],[-71.198388,42.33787],[-71.1981949,42.3378262],[-71.1980093,42.3377742],[-71.1978451,42.3377173],[-71.1976824,42.3376533],[-71.1975693,42.3375983],[-71.197351,42.337479],[-71.197076,42.337314],[-71.196746,42.337086],[-71.196636,42.336998],[-71.196535,42.336897],[-71.196309,42.336686],[-71.196131,42.336501],[-71.196021,42.336373],[-71.195973,42.336317],[-71.1958143,42.33614],[-71.1956645,42.3360199],[-71.1954952,42.3359229],[-71.1953304,42.3358519],[-71.195146,42.3357884],[-71.194971,42.335751],[-71.1947772,42.335726]]}},{"type":"Feature","properties":{"osm_way_id":1499472144,"course_order":176},"geometry":{"type":"LineString","coordinates":[[-71.1947772,42.335726],[-71.1945571,42.3357187]]}},{"type":"Feature","properties":{"osm_way_id":1499472145,"course_order":177},"geometry":{"type":"LineString","coordinates":[[-71.1945571,42.3357187],[-71.1943886,42.335738]]}},{"type":"Feature","properties":{"osm_way_id":426470721,"course_order":178},"geometry":{"type":"LineString","coordinates":[[-71.1943886,42.335738],[-71.1943421,42.3357433],[-71.1941259,42.335781],[-71.1939355,42.3358246],[-71.1935232,42.335948],[-71.193326,42.336007]]}},{"type":"Feature","properties":{"osm_way_id":426470727,"course_order":179},"geometry":{"type":"LineString","coordinates":[[-71.193326,42.336007],[-71.1931391,42.3360604],[-71.1930902,42.3360743],[-71.1928736,42.3361226],[-71.192744,42.336149],[-71.1927014,42.3361556]]}},{"type":"Feature","properties":{"osm_way_id":426470724,"course_order":180},"geometry":{"type":"LineString","coordinates":[[-71.1927014,42.3361556],[-71.1925785,42.3361747],[-71.1924204,42.3361904],[-71.1922165,42.3362051],[-71.1921632,42.3362056]]}},{"type":"Feature","properties":{"osm_way_id":426491914,"course_order":181},"geometry":{"type":"LineString","coordinates":[[-71.1921632,42.3362056],[-71.1919814,42.3362074],[-71.191385,42.336202],[-71.1912264,42.3362005],[-71.1907336,42.3361957],[-71.1899515,42.3362041],[-71.1895187,42.3362122],[-71.1893462,42.3362156],[-71.1887556,42.3362383],[-71.1882914,42.3362587],[-71.1874627,42.3363139],[-71.1871299,42.3363408],[-71.1869688,42.3363542],[-71.1865971,42.3363863],[-71.1865449,42.3363915],[-71.1864936,42.3363975],[-71.1864373,42.336405],[-71.1863667,42.3364163],[-71.1862859,42.3364281],[-71.1861719,42.336444]]}},{"type":"Feature","properties":{"osm_way_id":426491917,"course_order":182},"geometry":{"type":"LineString","coordinates":[[-71.1861719,42.336444],[-71.1860541,42.3364616]]}},{"type":"Feature","properties":{"osm_way_id":1444004729,"course_order":183},"geometry":{"type":"LineString","coordinates":[[-71.1860541,42.3364616],[-71.1859315,42.3364788],[-71.1858978,42.336484],[-71.1855966,42.3365333]]}},{"type":"Feature","properties":{"osm_way_id":426491918,"course_order":184},"geometry":{"type":"LineString","coordinates":[[-71.1855966,42.3365333],[-71.1854287,42.3365632],[-71.185195,42.336598],[-71.1851597,42.3366033],[-71.1850716,42.3366128],[-71.1849767,42.3366229],[-71.1848751,42.3366331]]}},{"type":"Feature","properties":{"osm_way_id":426587718,"course_order":185},"geometry":{"type":"LineString","coordinates":[[-71.1848751,42.3366331],[-71.1848124,42.3366378],[-71.1847405,42.3366413],[-71.1846769,42.3366439],[-71.1846025,42.3366449],[-71.1845105,42.3366459],[-71.1844318,42.3366446],[-71.1842525,42.3366414],[-71.1839834,42.3366326],[-71.183543,42.3366133],[-71.1832906,42.336597],[-71.1829872,42.3365771],[-71.1827029,42.3365513],[-71.1824119,42.3365253],[-71.181908,42.336467],[-71.1815544,42.3364227],[-71.1811655,42.3363749],[-71.1807336,42.33632],[-71.1801498,42.3362459],[-71.1798562,42.336207],[-71.1795753,42.3361707],[-71.1793255,42.3361429],[-71.1791865,42.3361291]]}},{"type":"Feature","properties":{"osm_way_id":426587720,"course_order":186},"geometry":{"type":"LineString","coordinates":[[-71.1791865,42.3361291],[-71.178929,42.3361197],[-71.1788889,42.3361189],[-71.1785847,42.336113]]}},{"type":"Feature","properties":{"osm_way_id":426587726,"course_order":187},"geometry":{"type":"LineString","coordinates":[[-71.1785847,42.336113],[-71.1784692,42.3361161],[-71.178373,42.336122],[-71.1783385,42.3361254],[-71.1782291,42.336139],[-71.1780832,42.3361645],[-71.1779794,42.3361847]]}},{"type":"Feature","properties":{"osm_way_id":117221801,"course_order":188},"geometry":{"type":"LineString","coordinates":[[-71.1779794,42.3361847],[-71.1779552,42.3361894],[-71.1778336,42.336219],[-71.1776908,42.3362657],[-71.177554,42.336313],[-71.1773545,42.3364014],[-71.177058,42.3365585],[-71.1767804,42.3367022],[-71.176514,42.3368398],[-71.1763982,42.3368986],[-71.1762782,42.3369582],[-71.1761489,42.3370165],[-71.176019,42.337071],[-71.1759071,42.3371098],[-71.175799,42.337142],[-71.1756667,42.3371712],[-71.1753509,42.3372327],[-71.1752333,42.3372511],[-71.1751171,42.3372626],[-71.1750247,42.3372689],[-71.174931,42.337273],[-71.1747925,42.3372778],[-71.174615,42.3372762],[-71.1743418,42.3372474],[-71.1740172,42.3371989],[-71.173551,42.3371205],[-71.1734029,42.3370952],[-71.1732739,42.3370825],[-71.173102,42.3370735],[-71.1730152,42.3370725]]}},{"type":"Feature","properties":{"osm_way_id":426587725,"course_order":189},"geometry":{"type":"LineString","coordinates":[[-71.1730152,42.3370725],[-71.1729483,42.3370718],[-71.1728149,42.3370785],[-71.1726808,42.337093],[-71.1726375,42.3370991],[-71.1725562,42.3371104],[-71.1724167,42.3371397]]}},{"type":"Feature","properties":{"osm_way_id":426587721,"course_order":190},"geometry":{"type":"LineString","coordinates":[[-71.1724167,42.3371397],[-71.1723309,42.3371592],[-71.1722356,42.3371872]]}},{"type":"Feature","properties":{"osm_way_id":426587724,"course_order":191},"geometry":{"type":"LineString","coordinates":[[-71.1722356,42.3371872],[-71.172128,42.3372322],[-71.1720416,42.3372731],[-71.1719563,42.3373204],[-71.1718845,42.337369]]}},{"type":"Feature","properties":{"osm_way_id":426587723,"course_order":192},"geometry":{"type":"LineString","coordinates":[[-71.1718845,42.337369],[-71.1718694,42.3373792],[-71.1715316,42.3376484]]}},{"type":"Feature","properties":{"osm_way_id":426587722,"course_order":193},"geometry":{"type":"LineString","coordinates":[[-71.1715316,42.3376484],[-71.1714679,42.3377055],[-71.1713036,42.3378606]]}},{"type":"Feature","properties":{"osm_way_id":426587719,"course_order":194},"geometry":{"type":"LineString","coordinates":[[-71.1713036,42.3378606],[-71.1711503,42.3380071],[-71.1711026,42.3380541]]}},{"type":"Feature","properties":{"osm_way_id":426587717,"course_order":195},"geometry":{"type":"LineString","coordinates":[[-71.1711026,42.3380541],[-71.1710618,42.3380943],[-71.1709515,42.3382035],[-71.1708579,42.338296],[-71.1707768,42.3383748],[-71.1706769,42.3384623],[-71.1705403,42.3385707],[-71.1703782,42.3386869],[-71.1702151,42.3387959],[-71.1700488,42.338893],[-71.169877,42.3389822],[-71.1698234,42.3390086],[-71.1697195,42.3390597],[-71.1695475,42.3391346],[-71.1693266,42.3392195],[-71.169126,42.3392928],[-71.1689114,42.3393653],[-71.168397,42.3395298]]}},{"type":"Feature","properties":{"osm_way_id":92064192,"course_order":196},"geometry":{"type":"LineString","coordinates":[[-71.168397,42.3395298],[-71.1678185,42.3396517],[-71.1676588,42.3396857],[-71.1675094,42.3397145],[-71.1673612,42.3397435],[-71.1671175,42.3397865],[-71.1669553,42.339815],[-71.1668737,42.3398294],[-71.1667686,42.3398453]]}},{"type":"Feature","properties":{"osm_way_id":426588109,"course_order":197},"geometry":{"type":"LineString","coordinates":[[-71.1667686,42.3398453],[-71.1666392,42.3398593],[-71.1663364,42.3398921],[-71.1662685,42.3398996],[-71.1661275,42.339916]]}},{"type":"Feature","properties":{"osm_way_id":8651285,"course_order":198},"geometry":{"type":"LineString","coordinates":[[-71.1661275,42.339916],[-71.1660462,42.3399301],[-71.1660143,42.3399343],[-71.1659597,42.3399417],[-71.1658143,42.3399595],[-71.1654978,42.3399896],[-71.1652182,42.3400131],[-71.1649166,42.340035],[-71.1646189,42.3400484],[-71.1643163,42.3400591],[-71.1640118,42.3400652],[-71.163717,42.3400655],[-71.163417,42.3400626],[-71.1631142,42.340054],[-71.1612436,42.3399955],[-71.1611968,42.3399935],[-71.1610611,42.3399898],[-71.1607507,42.3399817],[-71.1604472,42.3399694],[-71.1601647,42.33995],[-71.1600291,42.3399375],[-71.1598651,42.3399223],[-71.1596266,42.3398946],[-71.1595861,42.3398896],[-71.1594149,42.3398682],[-71.1591304,42.3398259],[-71.1589822,42.3398029],[-71.1586948,42.3397526],[-71.1584289,42.3396997],[-71.1582176,42.3396501],[-71.1579619,42.3395854],[-71.1578228,42.3395514],[-71.157693,42.3395171],[-71.1576266,42.3394991],[-71.1573439,42.3394138],[-71.1570695,42.3393236],[-71.1567958,42.3392266],[-71.1565284,42.3391259],[-71.1562572,42.3390197],[-71.1560025,42.338908],[-71.1557496,42.3387885],[-71.1555018,42.338665],[-71.1552483,42.3385406],[-71.1550973,42.3384701],[-71.1549317,42.3383942],[-71.1548977,42.338379],[-71.1547858,42.338329],[-71.1546138,42.3382482],[-71.1544815,42.3381893],[-71.1543508,42.3381369],[-71.1542206,42.3380901],[-71.1540449,42.3380321],[-71.1539638,42.3380109]]}},{"type":"Feature","properties":{"osm_way_id":426458992,"course_order":199},"geometry":{"type":"LineString","coordinates":[[-71.1539638,42.3380109],[-71.1539094,42.3380009],[-71.1538383,42.3379888],[-71.1537574,42.3379798]]}},{"type":"Feature","properties":{"osm_way_id":426458997,"course_order":200},"geometry":{"type":"LineString","coordinates":[[-71.1537574,42.3379798],[-71.1535496,42.3379574],[-71.153501,42.3379532],[-71.1534826,42.3379552],[-71.1534635,42.3379578],[-71.1534356,42.3379636],[-71.1533932,42.3379725],[-71.1533525,42.3379821],[-71.1533155,42.337992],[-71.1532599,42.3380078],[-71.1532186,42.3380209]]}},{"type":"Feature","properties":{"osm_way_id":1033104511,"course_order":201},"geometry":{"type":"LineString","coordinates":[[-71.1532186,42.3380209],[-71.153137,42.3379365],[-71.1530882,42.3378886],[-71.1530794,42.3378803]]}},{"type":"Feature","properties":{"osm_way_id":323902730,"course_order":202},"geometry":{"type":"LineString","coordinates":[[-71.1530794,42.3378803],[-71.1530419,42.3378453],[-71.1530359,42.3378396],[-71.1525857,42.337441],[-71.1523859,42.3372627],[-71.1522587,42.3371499],[-71.1519492,42.3369001],[-71.1513441,42.3364119]]}},{"type":"Feature","properties":{"osm_way_id":8641408,"course_order":203},"geometry":{"type":"LineString","coordinates":[[-71.1513441,42.3364119],[-71.1512879,42.3363438],[-71.151238,42.3362834],[-71.15114,42.3361739],[-71.1511119,42.3361467],[-71.1509996,42.3360264],[-71.1508866,42.3359112]]}},{"type":"Feature","properties":{"osm_way_id":8641460,"course_order":204},"geometry":{"type":"LineString","coordinates":[[-71.1508866,42.3359112],[-71.150831,42.3359064],[-71.1506763,42.3358934],[-71.1505335,42.3358825],[-71.1503968,42.3358669],[-71.1503634,42.3358633],[-71.150337,42.3358606],[-71.1502788,42.3358593],[-71.1502079,42.3358628],[-71.1501468,42.3358708],[-71.1500741,42.3358847],[-71.1499336,42.3359186]]}},{"type":"Feature","properties":{"osm_way_id":1415439132,"course_order":205},"geometry":{"type":"LineString","coordinates":[[-71.1499336,42.3359186],[-71.1497955,42.335952],[-71.1496174,42.3359933],[-71.1495947,42.3359987],[-71.1495561,42.3360079],[-71.1493383,42.3360599],[-71.1493001,42.336069]]}},{"type":"Feature","properties":{"osm_way_id":1088532694,"course_order":206},"geometry":{"type":"LineString","coordinates":[[-71.1493001,42.336069],[-71.1487846,42.3361958],[-71.1485658,42.3362504]]}},{"type":"Feature","properties":{"osm_way_id":426588347,"course_order":207},"geometry":{"type":"LineString","coordinates":[[-71.1485658,42.3362504],[-71.1472189,42.3365578],[-71.147081,42.33659]]}},{"type":"Feature","properties":{"osm_way_id":533542026,"course_order":208},"geometry":{"type":"LineString","coordinates":[[-71.147081,42.33659],[-71.1465141,42.3367146],[-71.1463481,42.3367506],[-71.1461942,42.3367792],[-71.1458049,42.3368495],[-71.1456715,42.3368747],[-71.1455285,42.3369028]]}},{"type":"Feature","properties":{"osm_way_id":426588328,"course_order":209},"geometry":{"type":"LineString","coordinates":[[-71.1455285,42.3369028],[-71.1452543,42.3369616],[-71.1450045,42.3370152]]}},{"type":"Feature","properties":{"osm_way_id":426588326,"course_order":210},"geometry":{"type":"LineString","coordinates":[[-71.1450045,42.3370152],[-71.1449179,42.3370332],[-71.1441492,42.3371932],[-71.1437943,42.3372837],[-71.1432412,42.3373916],[-71.1428943,42.3374422],[-71.1421172,42.3375975],[-71.1420633,42.3376098],[-71.1419367,42.3376516]]}},{"type":"Feature","properties":{"osm_way_id":518424991,"course_order":211},"geometry":{"type":"LineString","coordinates":[[-71.1419367,42.3376516],[-71.1417903,42.3376842],[-71.1409005,42.3378764],[-71.1405663,42.3379506],[-71.1403648,42.337995],[-71.1402538,42.3380208],[-71.1401409,42.3380439],[-71.1399958,42.3380728],[-71.1398571,42.3380991],[-71.139775,42.338115],[-71.1397018,42.338129],[-71.1396491,42.338139],[-71.1396054,42.3381483],[-71.1395672,42.3381573]]}},{"type":"Feature","properties":{"osm_way_id":1367185960,"course_order":212},"geometry":{"type":"LineString","coordinates":[[-71.1395672,42.3381573],[-71.1392329,42.3382384]]}},{"type":"Feature","properties":{"osm_way_id":8814793,"course_order":213},"geometry":{"type":"LineString","coordinates":[[-71.1392329,42.3382384],[-71.1390955,42.3382715],[-71.1389256,42.3383133],[-71.138883,42.3383244],[-71.1387631,42.3383548],[-71.1378859,42.3385707],[-71.1374534,42.3386986],[-71.1373469,42.3387232],[-71.1372532,42.3387458]]}},{"type":"Feature","properties":{"osm_way_id":1093572383,"course_order":214},"geometry":{"type":"LineString","coordinates":[[-71.1372532,42.3387458],[-71.137072,42.3387917],[-71.1369369,42.3388227],[-71.1368107,42.3388494],[-71.1363981,42.3389376],[-71.1362545,42.3389694],[-71.1361099,42.3390042],[-71.1358695,42.3390649]]}},{"type":"Feature","properties":{"osm_way_id":426498629,"course_order":215},"geometry":{"type":"LineString","coordinates":[[-71.1358695,42.3390649],[-71.1357211,42.3391014]]}},{"type":"Feature","properties":{"osm_way_id":426498631,"course_order":216},"geometry":{"type":"LineString","coordinates":[[-71.1357211,42.3391014],[-71.135392,42.3391824],[-71.1353479,42.339194],[-71.1352355,42.3392209],[-71.1351593,42.3392391]]}},{"type":"Feature","properties":{"osm_way_id":426498630,"course_order":217},"geometry":{"type":"LineString","coordinates":[[-71.1351593,42.3392391],[-71.1350854,42.3392587],[-71.1349258,42.339299],[-71.1348675,42.3393142]]}},{"type":"Feature","properties":{"osm_way_id":426498633,"course_order":218},"geometry":{"type":"LineString","coordinates":[[-71.1348675,42.3393142],[-71.1347344,42.3393429],[-71.1345953,42.3393713],[-71.1344759,42.3393935]]}},{"type":"Feature","properties":{"osm_way_id":8814040,"course_order":219},"geometry":{"type":"LineString","coordinates":[[-71.1344759,42.3393935],[-71.1343393,42.3394167],[-71.1341251,42.3394455],[-71.1339624,42.3394599],[-71.1337953,42.3394696],[-71.1336229,42.3394734],[-71.1334423,42.3394729],[-71.1326602,42.3394685],[-71.1322751,42.3394649],[-71.1319842,42.3394658],[-71.1318662,42.3394678],[-71.131768,42.3394707],[-71.1315643,42.3394776],[-71.1314903,42.3394811],[-71.1314537,42.3394828],[-71.1313135,42.3394896],[-71.1311776,42.3394984],[-71.1310749,42.339505],[-71.1307966,42.3395279],[-71.1304926,42.3395603],[-71.1301995,42.339597],[-71.1297743,42.3396608],[-71.1296273,42.3396868],[-71.1294786,42.3397132],[-71.1292113,42.3397649],[-71.1291904,42.3397689],[-71.1289114,42.3398321],[-71.1286914,42.3398843],[-71.1284498,42.3399468],[-71.1282186,42.3400125],[-71.1279473,42.3400944],[-71.1276729,42.340182],[-71.1274015,42.3402755],[-71.1272956,42.3403152]]}},{"type":"Feature","properties":{"osm_way_id":426498632,"course_order":220},"geometry":{"type":"LineString","coordinates":[[-71.1272956,42.3403152],[-71.1271567,42.3403674],[-71.1268689,42.3404768],[-71.1268352,42.3404889],[-71.1266624,42.3405576]]}},{"type":"Feature","properties":{"osm_way_id":426498636,"course_order":221},"geometry":{"type":"LineString","coordinates":[[-71.1266624,42.3405576],[-71.1265077,42.3406177],[-71.1264206,42.3406519],[-71.1262958,42.3407006],[-71.126158,42.3407496],[-71.1260592,42.3407833],[-71.1259583,42.3408156],[-71.1258538,42.3408472],[-71.1257106,42.3408888],[-71.1256756,42.3408991]]}},{"type":"Feature","properties":{"osm_way_id":426450170,"course_order":222},"geometry":{"type":"LineString","coordinates":[[-71.1256756,42.3408991],[-71.1251257,42.3410534],[-71.1248527,42.3411241],[-71.1245973,42.3411856],[-71.1242388,42.341267],[-71.1242011,42.3412749],[-71.1240169,42.3413152]]}},{"type":"Feature","properties":{"osm_way_id":1449999675,"course_order":223},"geometry":{"type":"LineString","coordinates":[[-71.1240169,42.3413152],[-71.1239294,42.3413337],[-71.1236675,42.3413793],[-71.1235243,42.3414036]]}},{"type":"Feature","properties":{"osm_way_id":426450168,"course_order":224},"geometry":{"type":"LineString","coordinates":[[-71.1235243,42.3414036],[-71.1232538,42.3414675],[-71.1232053,42.3414781],[-71.1231662,42.3414862],[-71.1230511,42.3415122]]}},{"type":"Feature","properties":{"osm_way_id":8814901,"course_order":225},"geometry":{"type":"LineString","coordinates":[[-71.1230511,42.3415122],[-71.1229073,42.341545],[-71.1228104,42.3415701],[-71.1224491,42.3416549],[-71.122305,42.3416915],[-71.1222356,42.3417106],[-71.1221697,42.3417302],[-71.1221007,42.3417537],[-71.1220383,42.3417744],[-71.121912,42.3418207],[-71.1218507,42.3418413],[-71.1217978,42.3418577]]}},{"type":"Feature","properties":{"osm_way_id":426450167,"course_order":226},"geometry":{"type":"LineString","coordinates":[[-71.1217978,42.3418577],[-71.1216221,42.3419101],[-71.1214424,42.3419619],[-71.1214032,42.3419719],[-71.1212245,42.3420267]]}},{"type":"Feature","properties":{"osm_way_id":102521303,"course_order":227},"geometry":{"type":"LineString","coordinates":[[-71.1212245,42.3420267],[-71.1211234,42.3420578],[-71.1210447,42.3420802],[-71.1208787,42.3421207]]}},{"type":"Feature","properties":{"osm_way_id":1353971718,"course_order":228},"geometry":{"type":"LineString","coordinates":[[-71.1208787,42.3421207],[-71.1207505,42.3421532],[-71.1205668,42.3421988],[-71.1202023,42.3422937],[-71.1201609,42.3423027],[-71.1200102,42.342345],[-71.1197443,42.3424195]]}},{"type":"Feature","properties":{"osm_way_id":426612680,"course_order":229},"geometry":{"type":"LineString","coordinates":[[-71.1197443,42.3424195],[-71.1191809,42.3425817],[-71.1190713,42.3426133]]}},{"type":"Feature","properties":{"osm_way_id":426612694,"course_order":230},"geometry":{"type":"LineString","coordinates":[[-71.1190713,42.3426133],[-71.1189169,42.3426563],[-71.1188644,42.3426709],[-71.1187122,42.3427152],[-71.1185494,42.3427616],[-71.1183998,42.3428022],[-71.1179151,42.3429316]]}},{"type":"Feature","properties":{"osm_way_id":426612690,"course_order":231},"geometry":{"type":"LineString","coordinates":[[-71.1179151,42.3429316],[-71.1173968,42.3430752],[-71.1173595,42.3430871],[-71.1172059,42.3431231]]}},{"type":"Feature","properties":{"osm_way_id":426840307,"course_order":232},"geometry":{"type":"LineString","coordinates":[[-71.1172059,42.3431231],[-71.1171422,42.3431464],[-71.1169999,42.343188],[-71.1169457,42.3432038],[-71.1168077,42.3432494],[-71.1166556,42.3432957],[-71.1165196,42.3433353],[-71.1163027,42.3433954],[-71.1161368,42.3434414],[-71.1152948,42.3436749]]}},{"type":"Feature","properties":{"osm_way_id":521563484,"course_order":233},"geometry":{"type":"LineString","coordinates":[[-71.1152948,42.3436749],[-71.114441,42.3439091],[-71.1144012,42.34392],[-71.1142758,42.3439536]]}},{"type":"Feature","properties":{"osm_way_id":1332706321,"course_order":234},"geometry":{"type":"LineString","coordinates":[[-71.1142758,42.3439536],[-71.1141535,42.3439871],[-71.1121967,42.3445255]]}},{"type":"Feature","properties":{"osm_way_id":521563488,"course_order":235},"geometry":{"type":"LineString","coordinates":[[-71.1121967,42.3445255],[-71.1119401,42.3445919],[-71.1118086,42.3446238],[-71.1116435,42.3446579],[-71.1115088,42.3446905],[-71.111374,42.3447283]]}},{"type":"Feature","properties":{"osm_way_id":426840308,"course_order":236},"geometry":{"type":"LineString","coordinates":[[-71.111374,42.3447283],[-71.1110578,42.3448168],[-71.1110249,42.3448268],[-71.1108822,42.3448651]]}},{"type":"Feature","properties":{"osm_way_id":8638017,"course_order":237},"geometry":{"type":"LineString","coordinates":[[-71.1108822,42.3448651],[-71.1107141,42.344915],[-71.1105874,42.344956],[-71.1104282,42.3450095],[-71.1102722,42.3450553],[-71.1091509,42.345364],[-71.1090477,42.3453924]]}},{"type":"Feature","properties":{"osm_way_id":1088901292,"course_order":238},"geometry":{"type":"LineString","coordinates":[[-71.1090477,42.3453924],[-71.1089086,42.3454306],[-71.1068758,42.3459892],[-71.1068391,42.3459995],[-71.106704,42.3460383]]}},{"type":"Feature","properties":{"osm_way_id":497069776,"course_order":239},"geometry":{"type":"LineString","coordinates":[[-71.106704,42.3460383],[-71.1065022,42.3461157],[-71.106119,42.3462474],[-71.1060056,42.3462804],[-71.1058064,42.346334],[-71.1056552,42.3463763],[-71.1055305,42.3464118],[-71.1054481,42.3464401],[-71.1052674,42.3465021],[-71.1052332,42.3465141],[-71.1051278,42.3465525]]}},{"type":"Feature","properties":{"osm_way_id":1482403888,"course_order":240},"geometry":{"type":"LineString","coordinates":[[-71.1051278,42.3465525],[-71.1050065,42.3465963]]}},{"type":"Feature","properties":{"osm_way_id":1317316050,"course_order":241},"geometry":{"type":"LineString","coordinates":[[-71.1050065,42.3465963],[-71.1049007,42.3466346],[-71.1047219,42.3466967],[-71.1045965,42.3467412],[-71.1045491,42.3467567],[-71.1044983,42.3467765],[-71.1044579,42.3467966],[-71.1043541,42.3468479]]}},{"type":"Feature","properties":{"osm_way_id":1365066789,"course_order":242},"geometry":{"type":"LineString","coordinates":[[-71.1043541,42.3468479],[-71.1041006,42.3469193]]}},{"type":"Feature","properties":{"osm_way_id":1482116238,"course_order":243},"geometry":{"type":"LineString","coordinates":[[-71.1041006,42.3469193],[-71.103729,42.3470218]]}},{"type":"Feature","properties":{"osm_way_id":1482116237,"course_order":244},"geometry":{"type":"LineString","coordinates":[[-71.103729,42.3470218],[-71.1036689,42.347012],[-71.1036571,42.3470112],[-71.1036297,42.3470116],[-71.1036036,42.3470155],[-71.1035797,42.3470214],[-71.1034279,42.347065],[-71.1034121,42.3470703],[-71.1034045,42.3470729],[-71.1033848,42.3470822],[-71.1033668,42.3470953],[-71.1033474,42.3471126],[-71.1033292,42.3471338]]}},{"type":"Feature","properties":{"osm_way_id":43100847,"course_order":245},"geometry":{"type":"LineString","coordinates":[[-71.1033292,42.3471338],[-71.1030352,42.3472131],[-71.1026103,42.3473268],[-71.1025604,42.3473402],[-71.1020433,42.3474824],[-71.1020075,42.3474933],[-71.1018535,42.347536]]}},{"type":"Feature","properties":{"osm_way_id":1364675671,"course_order":246},"geometry":{"type":"LineString","coordinates":[[-71.1018535,42.347536],[-71.1017491,42.347533],[-71.1017162,42.3475353],[-71.1016822,42.3475408],[-71.0998211,42.3480531],[-71.0997979,42.3480612],[-71.099774,42.348073],[-71.099684,42.3481294]]}},{"type":"Feature","properties":{"osm_way_id":1364167643,"course_order":247},"geometry":{"type":"LineString","coordinates":[[-71.099684,42.3481294],[-71.0984812,42.3484616],[-71.0982002,42.3485389]]}},{"type":"Feature","properties":{"osm_way_id":240745553,"course_order":248},"geometry":{"type":"LineString","coordinates":[[-71.0982002,42.3485389],[-71.0980174,42.3485673],[-71.0979874,42.3485729],[-71.0979579,42.3485791],[-71.0979264,42.3485869],[-71.0978986,42.3485946],[-71.0975698,42.3486871],[-71.0971629,42.3487847]]}},{"type":"Feature","properties":{"osm_way_id":8637705,"course_order":249},"geometry":{"type":"LineString","coordinates":[[-71.0971629,42.3487847],[-71.0969553,42.3487663],[-71.0968577,42.3487643],[-71.0967294,42.3487646]]}},{"type":"Feature","properties":{"osm_way_id":822618756,"course_order":250},"geometry":{"type":"LineString","coordinates":[[-71.0967294,42.3487646],[-71.0951325,42.348804],[-71.0950913,42.348805],[-71.0949742,42.3488079],[-71.0948757,42.3488103],[-71.093194,42.3488369]]}},{"type":"Feature","properties":{"osm_way_id":485271437,"course_order":251},"geometry":{"type":"LineString","coordinates":[[-71.093194,42.3488369],[-71.0929859,42.348837],[-71.0929443,42.3488366],[-71.0928427,42.3488325]]}},{"type":"Feature","properties":{"osm_way_id":822646986,"course_order":252},"geometry":{"type":"LineString","coordinates":[[-71.0928427,42.3488325],[-71.0923744,42.3488362],[-71.092148,42.348838]]}},{"type":"Feature","properties":{"osm_way_id":426831435,"course_order":253},"geometry":{"type":"LineString","coordinates":[[-71.092148,42.348838],[-71.0919212,42.3488399]]}},{"type":"Feature","properties":{"osm_way_id":822378767,"course_order":254},"geometry":{"type":"LineString","coordinates":[[-71.0919212,42.3488399],[-71.0917763,42.348841],[-71.0917318,42.3488414]]}},{"type":"Feature","properties":{"osm_way_id":822646987,"course_order":255},"geometry":{"type":"LineString","coordinates":[[-71.0917318,42.3488414],[-71.0915775,42.3488426]]}},{"type":"Feature","properties":{"osm_way_id":531920582,"course_order":256},"geometry":{"type":"LineString","coordinates":[[-71.0915775,42.3488426],[-71.0914753,42.3488427],[-71.0904554,42.3488604]]}},{"type":"Feature","properties":{"osm_way_id":86479795,"course_order":257},"geometry":{"type":"LineString","coordinates":[[-71.0904554,42.3488604],[-71.0903944,42.3488655],[-71.0903406,42.348871],[-71.09029,42.3488783],[-71.0902396,42.3488877],[-71.08993,42.3489585],[-71.0898545,42.3489738],[-71.0897786,42.3489872],[-71.0897069,42.3489977],[-71.0896317,42.3490066],[-71.0895561,42.3490143],[-71.0894815,42.3490203],[-71.089402,42.3490253],[-71.089329,42.3490292],[-71.0892524,42.3490315],[-71.0891061,42.3490354],[-71.0890306,42.3490384],[-71.0889497,42.3490436],[-71.0888744,42.3490501],[-71.0888043,42.3490571],[-71.0887329,42.3490653],[-71.0886703,42.3490733],[-71.0886143,42.3490806]]}},{"type":"Feature","properties":{"osm_way_id":802333195,"course_order":258},"geometry":{"type":"LineString","coordinates":[[-71.0886143,42.3490806],[-71.0885542,42.3490891],[-71.0884919,42.3490989],[-71.0884255,42.3491107],[-71.088355,42.3491243],[-71.0882841,42.349139],[-71.088212,42.3491548],[-71.0881383,42.3491726],[-71.0879947,42.3492114],[-71.0879291,42.3492281],[-71.0878577,42.3492445],[-71.0877811,42.3492613],[-71.0877068,42.3492765],[-71.0876364,42.3492892],[-71.0875647,42.3493007],[-71.0874915,42.3493113],[-71.0874183,42.3493194],[-71.0873417,42.3493252],[-71.0871958,42.3493342],[-71.0871252,42.3493404],[-71.0870487,42.3493484],[-71.0869686,42.3493581],[-71.0868867,42.3493683],[-71.0868067,42.3493811],[-71.08673,42.3493955]]}},{"type":"Feature","properties":{"osm_way_id":485271435,"course_order":259},"geometry":{"type":"LineString","coordinates":[[-71.08673,42.3493955],[-71.0861814,42.3495411],[-71.0861427,42.349552],[-71.0860519,42.3495769]]}},{"type":"Feature","properties":{"osm_way_id":806281879,"course_order":260},"geometry":{"type":"LineString","coordinates":[[-71.0860519,42.3495769],[-71.0860231,42.3495068],[-71.0860086,42.3494772],[-71.0858482,42.349146],[-71.0856902,42.3488211],[-71.0856545,42.3487503]]}},{"type":"Feature","properties":{"osm_way_id":8647909,"course_order":261},"geometry":{"type":"LineString","coordinates":[[-71.0856545,42.3487503],[-71.0856227,42.3486835],[-71.0856094,42.3486584],[-71.0854617,42.3483732],[-71.0853026,42.3480566],[-71.085256,42.3479665]]}},{"type":"Feature","properties":{"osm_way_id":852187438,"course_order":262},"geometry":{"type":"LineString","coordinates":[[-71.085256,42.3479665],[-71.0851373,42.3479983],[-71.0846931,42.3481173],[-71.0838874,42.3483351],[-71.0838361,42.3483497],[-71.0837487,42.3483726],[-71.0834429,42.3484547],[-71.0825197,42.3487026],[-71.0824828,42.3487124],[-71.0823688,42.3487431],[-71.0822401,42.3487771],[-71.0817887,42.3488963]]}},{"type":"Feature","properties":{"osm_way_id":825263836,"course_order":263},"geometry":{"type":"LineString","coordinates":[[-71.0817887,42.3488963],[-71.0809314,42.3491283],[-71.0808824,42.3491414],[-71.080775,42.3491705]]}},{"type":"Feature","properties":{"osm_way_id":591236042,"course_order":264},"geometry":{"type":"LineString","coordinates":[[-71.080775,42.3491705],[-71.0799573,42.3493903],[-71.0796559,42.3494724],[-71.0796023,42.3494866],[-71.0795006,42.3495151]]}},{"type":"Feature","properties":{"osm_way_id":815774828,"course_order":265},"geometry":{"type":"LineString","coordinates":[[-71.0795006,42.3495151],[-71.0793949,42.3495436],[-71.0786162,42.3497514]]}}],"license_url":"https://opendatacommons.org/licenses/odbl/1-0/"}
